X,Y,OBJECTID,NAME,ALIAS1,ALIAS2,JURISDICTION,ADDRESS,Address2,URL,PHONE,ARTSCENTER,BALLFIELDS,BOATRENTAL,CANOE,DISCGOLF,DOGPARK,ENVCTR,FISHING,GREENWAYACCESS,GYM,MULTIPURPOSEFIELD,OUTDOORBASKETBALL,PICNICSHELTER,PLAYGROUND,POOL,COMMUNITYCENTER,NEIGHBORHOODCENTER,TENNISCOURTS,TRACK,WALKINGTRAILS,RESTROOMS,Lat,Lon,Notes,AMUSEMENTTRAIN,CAROUSEL,TENNISCENTER,THEATER,BOCCE,HANDBALL,HORSESHOE,INLINESKATING,SANDVOLLEYBALL,SKATEPARK,ACTIVE_ADULT,BMXTRACK,BOATRIDE,LIBRARY,MUSEUM,TEEN,BIKING,LIVEANIMALS,GARDENS,EQUESTRIAN,FORLOCATOR
2124290.116336464881897,783394.810698732733727,2,Abbotts Creek Park,Abbotts Creek Park,Abbotts Creek Park,City of Raleigh,"9950 Durant Road, Raleigh, NC",,http://www.raleighnc.gov/home/content/ParksRec/Articles/Parks/AbbottsCreek.html,,No,No,No,No,No,No,No,No,No,No,No,No,No,Yes,No,Yes,No,No,No,No,Yes,,,,No,No,No,No,No,No,No,No,No,No,No,No,No,No,No,No,No,,,,Yes
2059712.752709299325943,670736.714821144938469,4,Action Park,,,Town of Fuquay-Varina,"609 Wake Chapel Road, Fuquay-Varina, NC","609 Wake Chapel Road, Fuquay-Varina, NC",http://www.fuquay-varina.org/departments-and-services/parks-recreation-and-cultural-resources/parks/action-park-description.html,919-552-1430,No,Yes,No,No,No,No,No,No,No,No,No,No,No,Yes,No,No,No,Yes,No,No,Yes,35.591424,-78.801715,,No,No,No,No,No,No,No,,No,No,No,No,No,No,No,No,No,,,,Yes
2148614.750101804733276,812885.625076562166214,5,Ailey Young Park,,,Town of Wake Forest,"800 E Juniper Ave, Wake Forest, NC","800 E Juniper Ave, Wake Forest, NC",http://www.wakeforestnc.gov/ailey-young-park.aspx,919-435-9560,No,Yes,No,No,No,No,No,No,No,No,No,Yes,Yes,Yes,No,No,No,No,No,No,Yes,35.981442,-78.492038,,No,No,No,No,No,No,No,No,No,No,No,No,No,No,No,No,No,,,,Yes
2055721.209183216094971,681734.577339813113213,7,Alston Ridge Park,,,Town of Fuquay-Varina,"6850 Hilltop-Needmore Road, Fuquay-Varina, NC","6850 Hilltop-Needmore Road, Fuquay-Varina, NC",http://www.fuquay-varina.org/departments-and-services/parks-recreation-and-cultural-resources/parks/alston-ridge-park.html,919-552-1430,No,No,No,No,No,No,No,No,No,No,No,No,Yes,Yes,No,No,No,No,Yes,Yes,No,35.627916,-78.779520,,No,No,No,No,No,No,No,No,No,No,No,No,No,No,No,No,No,,,,Yes
2015764.623414143919945,714932.970260471105576,13,American Tobacco Trail - New Hill Entrance,,,Wake County,"1309 New Hill-Olive Chapel Road, Apex, NC 27502","1309 New Hill-Olive Chapel Road, Apex, NC 27502",http://www.wakegov.com/parks/att/Pages/default.aspx,919-387-2117,No,No,No,No,No,No,No,No,Yes,No,No,No,No,No,No,No,No,No,No,Yes,Yes,35.714336,-78.946984,,No,No,No,No,No,No,No,No,No,No,No,No,No,No,No,No,Yes,No,No,Yes,Yes
2022818.438702806830406,741099.206313729286194,18,American Tobacco Trail - White Oak Entrance,,,Wake County,"1305 White Oak Church Road, Apex, NC 27523",,http://www.wakegov.com/parks/att/Pages/default.aspx,919-387-2117,No,No,No,No,No,No,No,No,Yes,No,No,No,No,No,No,No,No,No,No,Yes,Yes,,,,No,No,No,No,No,No,No,No,No,No,No,No,No,No,No,No,Yes,No,No,Yes,Yes
2023461.515500634908676,731845.323902890086174,19,American Tobacco Trail - Wimberly Rd Entrance,,,Wake County,"1017 Wimberly Road, Apex, NC 27502","1017 Wimberly Road, Apex, NC 27502",http://www.wakegov.com/parks/att/Pages/directions.aspx,919-387-2117,No,No,No,No,No,No,No,No,Yes,No,No,No,No,No,No,No,No,No,No,Yes,No,35.760054,-78.920102,,No,No,No,No,No,No,No,No,No,No,No,No,No,No,No,No,Yes,No,No,Yes,Yes
2135609.591072797775269,736518.144609734416008,20,Anderson Point Park,,,City of Raleigh,"20 Anderson Point Dr, Raleigh, NC","20 Anderson Point Dr, Raleigh, NC",http://www.raleighnc.gov/arts/content/PRecRecreation/Articles/AndersonPointMainPage.html,919-329-5994,No,No,No,Yes,No,No,No,No,Yes,No,No,No,Yes,Yes,No,No,No,No,No,Yes,Yes,35.770887,-78.542011,,No,No,No,No,No,No,No,No,No,No,No,No,No,No,No,No,No,,,,Yes
2135484.107727974653244,737270.955111980438232,24,Anderson Point River Access,,,City of Raleigh,"20 Anderson Point Dr, Raleigh, NC",,https://www.raleighnc.gov/parks/content/ParksRec/Articles/Programs/Outdoor/RiverAccess.html,919-996-2144,,,,Yes,,,,,Yes,,,,,,,,,,,Yes,,,,,No,,,,,,,,,,,,,,,,No,,,,Yes
2055351.580329298973083,731748.968124479055405,31,Annie L. Jones Park,,,Town of Cary,"1414 Tarbert Drive, Cary, NC","1414 Tarbert Drive, Cary, NC",http://www.townofcary.org/recreation-enjoyment/parks-greenways-environment/parks/annie-jones-park,,No,Yes,No,No,No,No,No,No,Yes,No,No,Yes,No,Yes,No,No,No,Yes,No,No,Yes,35.761226,-78.813001,,No,No,No,No,No,No,No,No,No,No,No,No,,No,No,No,No,,,,Yes
2118625.437049046158791,789647.937628149986267,34,"Annie Louise Wilkerson, MD Nature Preserve Park",,,City of Raleigh,"11408 Raven Ridge Rd, Raleigh, NC","11408 Raven Ridge Rd, Raleigh, NC",http://www.raleighnc.gov/arts/content/PRecRecreation/Articles/AnnieLWilkersonNaturePreservePark.html,919-996-6764,No,No,No,No,No,No,Yes,No,No,No,No,No,Yes,No,No,No,No,No,No,Yes,Yes,35.922096,-78.598837,,No,No,No,No,No,No,No,No,No,No,No,No,No,No,No,No,No,,,,Yes
2045619.600121393799782,722443.599924221634865,35,Apex Community Center,,,Town of Apex,53 Hunter Street,,http://www.apexnc.org/513/Program-Guides,919-249-3402,No,No,No,No,No,No,No,No,No,No,No,No,No,No,No,Yes,No,No,No,Yes,Yes,35.733917,-78845943,,No,No,No,No,Yes,No,Yes,No,No,No,Yes,No,No,No,No,No,No,,,,Yes
2050849.02470189332962,729618.349682316184044,40,Apex Community Park,Lake Pine,,Town of Apex,"2200 Laura Duncan Rd., Apex, NC","1808 Lake Pine Dr., Apex, NC",http://www.apexnc.org/795/Apex-Community-Park,919-249-3402,No,Yes,No,Yes,No,No,No,Yes,Yes,No,Yes,Yes,Yes,Yes,No,No,No,Yes,No,Yes,Yes,35.754610,-78.828518,,No,No,No,No,No,No,No,No,Yes,No,No,No,No,No,No,No,No,,,,Yes
2054610.730104967951775,726764.424615889787674,46,Apex Community Park (Lake Pine),Lake Pine,,Town of Apex,2101 Lake Pine Drive,2000 Laura Duncan Road,https://www.apexnc.org/795/Apex-Community-Park,919-249-3402,No,No,No,Yes,No,No,No,Yes,Yes,No,No,No,No,No,No,No,No,No,No,Yes,Yes,35.746843,-78.815963,,No,,,,,,,,,,,,,,,,Yes,,,,Yes
2041362.079765051603317,721202.907195642590523,48,Apex Jaycee Park,,,Town of Apex,451 W Williams St,"451 NC HWY 55, Apex, NC",https://www.apexnc.org/797/Apex-Jaycee-Park,919-249-3402,No,Yes,No,No,No,No,No,No,Yes,No,Yes,No,Yes,Yes,No,No,No,No,No,Yes,No,35.731629,-78.860571,,No,No,No,No,No,No,No,No,No,No,No,No,No,No,No,No,No,,,,Yes
2028139.842101976275444,715931.257962062954903,49,Apex Nature Park,Seymour Athletic Fields,,Town of Apex,"2600 Evans Rd., Apex, NC","2500 Evans Rd., Apex, NC",https://www.apexnc.org/800/Nature-Park-Seymour-Athletic-Fields,919-249-3402,No,No,No,No,Yes,Yes,Yes,No,Yes,No,No,No,Yes,No,No,No,No,No,No,Yes,Yes,35.717099,-78.905361,,No,No,No,Yes,No,No,No,No,No,No,No,No,No,No,No,No,No,,,,Yes
2028834.634019464254379,716872.789543554186821,51,Apex Nature Park (Seymour Athletic Fields),Seymour Athletic Fields,,Town of Apex,2500 Evans Road,2600 Evan Road,https://www.apexnc.org/800/Nature-Park-Seymour-Athletic-Fields,,No,No,No,No,No,No,No,No,Yes,No,Yes,Yes,Yes,Yes,No,No,No,Yes,No,Yes,Yes,35.719409,-78.903012,,No,No,No,No,No,No,No,No,Yes,No,No,No,No,No,No,No,No,,,,Yes
2116034.249974220991135,733650.875081807374954,53,Apollo Heights Park,Ralph Campbell,,City of Raleigh,"756 Lunar Dr, Raleigh, NC","756 Lunar Dr, Raleigh, NC",http://www.raleighnc.gov/arts/content/PRecRecreation/Articles/AnnieLWilkersonNaturePreservePark.html,919-250-2757,No,No,No,No,No,No,No,No,Yes,No,No,Yes,Yes,Yes,No,Yes,Yes,No,No,No,No,35.764905,-78.609241,,No,No,No,No,No,No,No,No,No,No,No,No,No,No,No,No,No,,,,Yes
2098255.70810355246067,786368.218137726187706,54,Baileywick Road Park,,,City of Raleigh,"9501 Baileywick Rd, Raleigh, NC","9501 Baileywick Rd, Raleigh, NC",http://www.raleighnc.gov/arts/content/PRecRecreation/Articles/BaileywickPark.html,919-870-2911,No,Yes,No,No,No,No,No,No,Yes,No,Yes,No,Yes,Yes,No,No,No,No,No,Yes,Yes,35.907949,-78.668549,,No,No,No,No,No,No,No,No,No,No,No,No,No,No,No,No,No,,,,Yes
2067127.674559220671654,678017.233724638819695,57,Ballentine School Park,,,Town of Fuquay-Varina,"1651 North McLaurin Lane, Fuquay-Varina, NC","1651 North McLaurin Lane, Fuquay-Varina, NC",http://www.fuquay-varina.org/departments-and-services/parks-recreation-and-cultural-resources/parks/ballentine-school-park.html,919-552-1430,No,Yes,No,No,No,No,No,No,No,No,Yes,No,No,No,No,No,No,No,No,No,Yes,35.613611,-78.772477,,No,No,No,No,No,No,No,No,No,No,No,No,No,No,No,No,No,,,,Yes
2086156.663404047489166,685447.442289397120476,61,Banks Road Fields,,,Town of Fuquay-Varina,"10225 Chambers Road, Fuquay-Varina, NC","10225 Chambers Road, Fuquay-Varina, NC",http://www.fuquay-varina.org/departments-and-services/parks-recreation-and-cultural-resources/parks/banks-road.html,919-552-1430,No,No,No,No,No,No,No,No,No,No,Yes,No,No,No,No,No,No,No,No,No,No,35.633254,-78.709959,,No,No,No,No,No,No,No,No,No,No,No,No,No,No,No,No,No,,,,Yes
2131910.264153882861137,721338.745506644248962,62,Barwell Road Park,,,City of Raleigh,"3935 Barwell Rd, Raleigh, NC","3935 Barwell Rd, Raleigh, NC",http://www.raleighnc.gov/arts/content/PRecRecreation/Articles/BarwellRoadCommunityCenter.html,919-329-5994,No,No,No,No,No,No,No,No,No,Yes,No,No,No,No,No,Yes,No,No,No,No,No,35.730479,-78.551483,,No,No,No,No,No,No,No,No,No,No,No,No,No,No,No,No,No,,,,Yes
2058235.697264477610588,689106.187268480658531,65,Bass Lake Park,,,Town of Holly Springs,"900 Bass Lake Rd., Holly Springs, NC","900 Bass Lake Rd., Holly Springs, NC",http://www.hollyspringsnc.us/index.aspx?NID=320,(919) 557-9600,No,No,No,No,No,No,Yes,No,Yes,No,No,No,Yes,No,No,No,No,No,No,No,No,35.641441,-78.801340,,No,No,No,No,No,No,No,No,No,No,No,No,No,No,No,No,No,,,,Yes
2131542.74979704618454,776547.313238888978958,68,Berkshire Downs West Park,,,City of Raleigh,"8105 McGuire Dr, Raleigh, NC","8105 McGuire Dr, Raleigh, NC",http://www.raleighnc.gov/arts/content/PRecParks/Articles/PlaygroundBerkshireDownsWest.html,919-831-6640,No,No,No,No,No,No,No,No,No,No,No,No,No,Yes,No,No,No,No,No,No,No,35.882057,-78.556433,,No,No,No,No,No,No,No,No,No,No,No,No,No,No,No,No,No,,,,Yes
2110496.823385059833527,726016.161020562052727,69,Biltmore Hills Park,,,City of Raleigh,"2615 Fitzgerald Dr, Raleigh, NC","2615 Fitzgerald Dr, Raleigh, NC",http://www.raleighnc.gov/arts/content/PRecRecreation/Articles/BiltmoreHills.html,919-831-6895,No,Yes,No,No,No,No,No,No,No,Yes,No,Yes,Yes,Yes,Yes,Yes,No,Yes,No,Yes,Yes,35.745947,-78.627026,,No,No,No,No,No,No,No,No,No,No,No,No,No,No,No,No,No,,,,Yes
2062118.330903381109238,746828.813620895147324,71,Black Creek Greenway Trailhead,,,Town of Cary,"2055 NW Maynard Road, Cary, NC","2055 NW Maynard Road, Cary, NC",http://www.townofcary.org/recreation-enjoyment/parks-greenways-environment/greenways/black-creek-greenway,,No,No,No,No,No,No,No,No,Yes,No,No,No,No,No,No,No,No,No,No,No,No,35.801406,-78.791817,,No,No,No,No,No,No,No,No,No,No,No,No,No,No,No,No,No,,,,Yes
2105185.336632713675499,807300.101470723748207,74,Blue Jay Point County Park,,,Wake County,"3200 Pleasant Union Church Road, Raleigh, NC 27614","3200 Pleasant Union Church Road, Raleigh, NC 27614",http://www.wakegov.com/parks/bluejay/Pages/default.aspx,919-870-4330,No,No,No,No,No,No,Yes,Yes,No,No,Yes,No,Yes,Yes,No,No,No,No,No,Yes,Yes,35.968917,-78.642750,,No,No,No,No,No,No,No,No,No,No,No,No,No,No,No,No,No,No,No,No,Yes
2108002.656457379460335,733882.873305484652519,75,Bragg Street Park,,,City of Raleigh,"1116 South Person St, Raleigh, NC","1116 South Person St, Raleigh, NC",http://www.raleighnc.gov/arts/content/PRecRecreation/Articles/BraggStreetPark.html,919-831-6640,No,No,No,No,No,No,No,No,No,No,No,Yes,No,Yes,No,No,No,No,No,No,No,35.765959,-78.635931,,No,No,No,No,No,No,No,No,No,No,No,No,No,No,No,No,No,,,,Yes
2118386.249863386154175,756713.687551900744438,76,Brentwood Park,,,City of Raleigh,"3315 Vinson Ct, Raleigh, NC","3315 Vinson Ct, Raleigh, NC",http://www.raleighnc.gov/arts/content/PRecRecreation/Articles/BrentwoodCenter.html,919-872-41040,No,Yes,No,No,No,No,No,No,No,No,No,Yes,Yes,Yes,No,Yes,Yes,Yes,No,Yes,No,35.828500,-78.599548,,No,No,No,No,No,No,No,No,No,No,No,No,No,No,No,No,No,,,,Yes
2057473.640061557292938,782539.226123809814453,80,Brier Creek Park,,,City of Raleigh,"10810 Globe Rd, Raleigh, NC","10810 Globe Rd, Raleigh, NC",http://www.raleighnc.gov/arts/content/PRecRecreation/Articles/BrierCreekCommunityCenter.html,919-420-2340,No,No,No,No,No,No,No,No,No,Yes,Yes,No,Yes,Yes,No,No,No,No,No,Yes,Yes,35.900527,-78.806363,,No,No,No,No,No,No,No,No,No,No,No,No,No,No,No,No,No,,,,Yes
2092840.672345727682114,765228.021573066711426,82,Brookhaven Nature Park,,,City of Raleigh,"5125 Berkeley St, Raleigh, NC","5125 Berkeley St, Raleigh, NC",http://www.raleighnc.gov/arts_parks/,919-831-6856,No,No,No,No,No,No,No,No,No,No,No,No,No,No,No,No,No,No,No,Yes,No,35.853880,-78.686230,,No,No,No,No,No,No,No,No,No,No,No,No,No,No,No,No,No,,,,Yes
2135794.699954554438591,761282.197443723678589,85,Buffaloe Road Athletic Park,Buffaloe Road Aquatic Center,,City of Raleigh,"5900 Buffaloe Rd, Raleigh, NC","5900 Buffaloe Rd, Raleigh, NC",http://www.raleighnc.gov/arts/content/PRecRecreation/Articles/BuffaloeRoadAthleticPark.html,919-831-6836,No,Yes,No,No,No,No,No,No,Yes,No,Yes,No,No,Yes,Yes,No,No,No,Yes,Yes,Yes,35.838362,-78.537282,,No,No,No,No,No,No,No,No,No,No,No,No,No,No,No,No,No,,,,Yes
2138882.49988129734993,763731.187952563166618,90,Buffaloe Road Canoe Launch,,,City of Raleigh,"4901 Elizabeth Dr, Raleigh, NC","4901 Elizabeth Dr, Raleigh, NC",http://www.raleighnc.gov/arts_parks/,919-831-6610,No,No,No,Yes,No,No,No,No,Yes,No,No,No,No,No,No,No,No,No,No,No,No,35.847667,-78.530864,,No,No,No,No,No,No,No,No,No,No,No,No,No,No,No,No,No,,,,Yes
2042717.012750715017319,720948.413282066583633,96,C C Jones Park,,,Privately Owned,"309 Holleman St, Apex, NC",,http://ccjones.org/index.html,919-362-5634,,,,,,,,,,,,,,Yes,,Yes,,,,,Yes,,,,No,,,,,,,,,,,,,,,,No,,,,Yes
2124862.158827558159828,778867.484123483300209,99,Campbell Lodge,,,City of Raleigh,"3237 Spottswood St, Raleigh, NC","3237 Spottswood St, Raleigh, NC",http://www.raleighnc.gov/arts/content/PRecRecreation/Articles/DurantNatureParkRentalFacilities.html,919-870-2871,No,No,No,No,No,No,No,Yes,No,No,Yes,Yes,Yes,Yes,No,No,No,No,No,Yes,No,35.891005,-78.577286,,No,No,No,No,No,No,No,No,Yes,No,No,No,No,No,No,No,No,,,,Yes
2124642.585775882005692,797014.773944303393364,102,Canoe Launch at Falls Lake,,,City of Raleigh,"12028 Falls of Neuse Rd, Raleigh, NC","12028 Falls of Neuse Rd, Raleigh, NC",http://www.raleighnc.gov/arts_parks/,919-831-6610,No,No,No,Yes,No,No,No,No,Yes,No,No,No,No,No,No,No,No,No,No,No,No,35.939745,-78.577227,,No,No,No,No,No,No,No,No,No,No,No,No,No,No,No,No,No,,,,Yes
2104993.800926551222801,732056.543624803423882,103,Caraleigh Park,,,City of Raleigh,"110 Maywood Ave, Raleigh, NC","110 Maywood Ave, Raleigh, NC",http://www.raleighnc.gov/arts/content/PRecRecreation/Articles/CaraleighPark.html,919-831-6640,No,No,No,No,No,No,No,No,No,No,No,Yes,No,Yes,No,No,No,No,No,No,No,35.761010,-78.646213,,No,No,No,No,No,No,No,No,No,No,No,No,No,No,No,No,No,,,,Yes
2097556.528071463108063,727846.34764888882637,104,Carolina Pines Park,,,City of Raleigh,"2305 Lake Wheeler Rd, Raleigh, NC","2305 Lake Wheeler Rd, Raleigh, NC",http://www.raleighnc.gov/arts/content/PRecRecreation/Articles/CarolinaPines.html,919-831-6435,No,Yes,No,No,No,Yes,No,No,No,Yes,No,No,Yes,Yes,No,Yes,No,Yes,No,No,No,35.748497,-78.667705,,No,No,No,No,No,No,No,No,Yes,No,No,No,No,No,No,No,No,,,,Yes
2040246.572481632232666,754438.815789312124252,107,Carpenter Park,Carpenter Park Community Garden,Memorial to Victims of Flight 3379 & 3378,Town of Cary,"4420 Louis Stephens Drive, Cary, NC","4420 Louis Stephens Drive, Cary, NC",http://www.townofcary.org/recreation-enjoyment/parks-greenways-environment/parks/carpenter-park,,No,No,No,No,No,No,No,No,No,No,Yes,Yes,Yes,Yes,No,No,No,Yes,No,Yes,Yes,,,,No,No,No,No,No,No,No,No,No,No,No,No,No,No,No,No,No,,,,Yes
2057228.885301724076271,661120.520798981189728,110,Carroll Howard Johnson Environmental Education Park,,,Town of Fuquay-Varina,"301 Wagstaff Road, Fuquay-Varina, NC","301 Wagstaff Road, Fuquay-Varina, NC",http://www.fuquay-varina.org/departments-and-services/parks-recreation-and-cultural-resources/parks/carroll-howard-johnson-environmental-education-park.html,919-552-1430,No,No,No,No,No,No,No,No,Yes,No,No,No,Yes,No,No,No,No,No,No,Yes,Yes,35.565054,-78.806943,Amphitheater,No,No,Yes,No,No,No,No,No,No,No,No,No,No,No,No,No,No,,,,Yes
2181456.550231724977493,743708.562315478920937,112,Carver Elementary School Park,,,Town of Wendell,"291 Liles-Dean Rd, Wendell, NC","291 Liles-Dean Rd, Wendell, NC",https://www.townofwendell.com/departments/parks-and-recreation/facilites/carver-fields,(919) 365-2680,No,Yes,No,No,No,No,No,No,No,No,No,No,No,Yes,No,No,No,No,No,No,No,,,,No,No,No,No,No,No,No,No,No,No,No,No,No,No,No,No,No,,,,Yes
2114013.868188217282295,739904.890460893511772,114,Carver Park,Pender Street Mini Park,John Stokes Garden,City of Raleigh,"1600 Pender St, Raleigh, NC","1600 Pender St, Raleigh, NC",http://www.raleighnc.gov/arts_parks/,919-831-6640,No,No,No,No,No,No,No,No,No,No,No,No,No,No,No,No,No,No,No,No,No,35.782242,-78.615633,,No,No,No,No,No,No,No,No,No,No,No,No,No,No,No,No,No,,,,Yes
2064691.648263305425644,739942.232577815651894,115,Cary Arts Center,,,Town of Cary,"316 N Academy Street, Cary, NC","316 N Academy Street, Cary, NC",http://www.townofcary.org/Departments/Parks__Recreation___Cultural_Resources/Fac,,No,No,No,No,No,No,No,No,No,No,No,No,No,No,No,No,No,No,No,No,No,35.789595,-78.780620,,No,No,No,No,No,No,No,No,No,No,No,No,No,No,No,No,No,,,,Yes
2069985.352242797613144,735542.068477898836136,121,Cary High School Softball Field,,,Town of Cary,"638 Walnut Street, Cary, NC","638 Walnut Street, Cary, NC",http://games.townofcarync.gov/ballfields/displaystatus.php,,No,No,No,No,No,No,No,No,No,No,No,No,No,No,No,No,No,No,No,No,No,35.771508,-78.766249,,No,No,No,No,No,No,No,No,No,No,No,No,No,No,No,No,No,,,,Yes
2040976.552648976445198,747435.564703971147537,124,Cary Tennis Park,,,Town of Cary,"2727 Louis Stephens Drive, Cary, NC","2727 Louis Stephens Drive, Cary, NC",http://www.townofcary.org/recreation-enjoyment/facilities/cary-tennis-park,919-462-2061,No,No,No,No,No,No,No,No,No,No,No,No,No,No,No,No,No,Yes,No,No,Yes,35.804949,-78.862641,,No,No,No,No,No,No,No,No,No,No,No,No,No,No,No,No,No,,,,Yes
2052848.061714306473732,755140.091289639472961,126,Cedar Fork District Park,,,Town of Morrisville,228 Aviation Parkway,"Morrisville, NC 27560",http://www.townofmorrisville.org/government/departments-services/parks-recreation-cultural-resources/parks-and-greenways/cedar-fork-district-park,919-463-7110,No,No,No,No,No,No,No,No,Yes,No,Yes,No,Yes,No,No,No,No,No,No,No,Yes,,,,No,No,No,No,No,No,No,No,No,No,No,No,No,No,No,No,No,,,,Yes
2109509.999899387359619,768419.999441057443619,129,Cedar Hills Park,,,City of Raleigh,"5600 Sweetbriar Dr, Raleigh, NC","5600 Sweetbriar Dr, Raleigh, NC",http://www.raleighnc.gov/arts/content/PRecRecreation/Articles/CedarHillsPark.html,919-870-2880,No,Yes,No,No,Yes,No,No,No,No,No,No,Yes,Yes,Yes,No,No,No,Yes,No,No,No,35.859295,-78.630624,,No,No,No,No,No,No,No,No,No,No,No,No,No,No,No,No,No,,,,Yes
2117805.589935466647148,698498.886658892035484,132,Centennial Park,,,Town of Garner,"1015 New Bethel Church Road, Garner NC, 27529","1015 New Bethel Church Road, Garner NC, 27529",http://www.garnernc.gov/Departments/Parks%20and%20Recreation/Parks.aspx?ID=1,919-773-4442,No,Yes,No,No,No,No,No,No,,No,No,No,Yes,Yes,No,No,No,No,No,Yes,Yes,35.669359,-78.604600,,No,No,No,No,No,No,No,No,No,No,No,No,No,No,No,No,No,,,,Yes
2099295.637782216072083,743456.530339226126671,133,Chamberlain Park,,,City of Raleigh,"500 Chamberlain St, Raleigh, NC","500 Chamberlain St, Raleigh, NC",http://www.raleighnc.gov/arts/content/PRecRecreation/Articles/ChamberlainPark.html,919-831-6640,No,No,No,No,No,No,No,No,No,No,No,Yes,No,Yes,No,No,No,No,No,No,No,35.792082,-78.664640,,No,No,No,No,No,No,No,No,No,No,No,No,No,No,No,No,No,,,,Yes
2046657.189253553748131,763017.297976151108742,135,Church Street Park,,,Town of Morrisville,5800 Cricket Pitch Way,"Morrisville, NC 27560",http://www.townofmorrisville.org/government/departments-services/parks-recreation-cultural-resources/parks-and-greenways/church-street-park,919-463-7110,No,No,No,No,No,No,No,No,Yes,No,Yes,No,Yes,Yes,No,No,No,Yes,No,Yes,Yes,,,,No,No,No,No,No,No,No,No,No,No,No,No,No,No,No,No,No,,,,Yes
2046854.387021884322166,719663.696691393852234,139,Clairmont Park,,,Town of Apex,"801 E. Chatham St., Apex, NC","801 E. Chatham St., Apex, NC",https://www.apexnc.org/796/Neighborhood-Parks,919-249-3402,No,No,No,No,No,No,No,No,No,No,No,Yes,Yes,Yes,No,No,No,No,No,No,No,35.727473,-78.841750,,No,No,No,No,No,No,No,No,No,No,No,No,No,No,No,No,No,,,,Yes
2151748.753020137548447,700677.279283732175827,140,Clemmons Educational State Forest,,,State of North Carolina,"2256 Old U.S. Hwy 70, Clayton, NC",,https://www.ncesf.org/clemmons.html,919-553-5651,,,,,,,,,,,,,Yes,,,,,,,Yes,Yes,,,,No,,,,,,,,,,,,,,,,No,,,,Yes
2114622.895841553807259,718953.940564975142479,142,Cloverdale Park,,,Town of Garner,"1603 Meadowbrook Dr, Garner, NC 27529",,https://www.garnernc.gov/departments/economic-development/living-here/recreation-and-cultural-resources,919-773-4431,,,,,,,,,,,,,,,,,,,,,,,,,No,,,,,,,,,,,,,,,,No,,,,Yes
2098882.000158056616783,741925.687272310256958,143,Compiegne Park,,,City of Raleigh,"106 Chamberlain St, Raleigh, NC","106 Chamberlain St, Raleigh, NC",http://www.raleighnc.gov/arts_parks/,919-831-6640,No,No,No,No,No,No,No,No,No,No,No,No,No,No,No,No,No,No,No,No,No,35.788150,-78.666169,,No,No,No,No,No,No,No,No,No,No,No,No,No,No,No,No,No,,,,Yes
2053282.698312222957611,753612.29349222779274,146,Crabtree Creek Nature Park,,,Town of Morrisville,151 Keybridge Drive,"Morrisville, NC 27560",http://www.townofmorrisville.org/government/departments-services/parks-recreation-cultural-resources/parks-and-greenways/crabtree-creek-nature-park,919-463-7110,No,No,No,No,No,No,No,No,Yes,No,Yes,No,No,No,No,No,No,No,No,No,No,,,,No,No,No,No,No,No,No,No,No,No,No,No,No,No,No,No,No,,,,Yes
2118065.615662142634392,715114.463663890957832,148,Creech Road Elementary School Park,,,Town of Garner,"400 Creech Road, Garner NC, 27529","400 Creech Road, Garner NC, 27529",http://www.garnernc.gov/Departments/Parks%20and%20Recreation/Parks.aspx?ID=2,919-773-4442,No,Yes,No,No,No,No,No,No,Unknown,No,No,No,Yes,Yes,No,No,No,No,No,Yes,Yes,35.713956,-78.602436,,No,No,No,No,No,No,No,No,No,No,No,No,No,No,No,No,No,,,,Yes
2069524.835447296500206,706771.872737556695938,151,Crowder County Park,,,Wake County,4709 Ten Ten Road,"Apex, NC 27539",http://www.wakegov.com/parks/crowder/Pages/default.aspx,919-662-2850,No,No,No,No,No,No,No,No,No,No,Yes,No,Yes,Yes,No,No,No,No,No,Yes,Yes,,,,No,No,No,No,No,No,No,No,Yes,No,No,No,No,No,No,No,No,No,Yes,No,Yes
2118148.24968321621418,732613.749859482049942,152,Dacian Road Park,,,City of Raleigh,"566 Dacian Rd, Raleigh, NC","566 Dacian Rd, Raleigh, NC",https://www.raleighnc.gov/parks/content/ParksRec/Articles/Parks/DacianRoad.html,919-831-6640,No,No,No,No,No,No,No,No,No,No,No,Yes,No,Yes,No,No,No,No,No,No,No,35.762097,-78.601607,,No,No,No,No,No,No,No,No,No,No,No,No,No,No,No,No,No,,,,Yes
2111440.403518885374069,737259.067012399435043,153,Davie Street Park,,,City of Raleigh,"908 East Davie St, Raleigh, NC","908 East Davie St, Raleigh, NC",http://www.raleighnc.gov/arts/content/PRecRecreation/Articles/DavieStreetPark.html,919-831-6640,No,No,No,No,No,No,No,No,No,No,No,Yes,Yes,Yes,No,No,No,No,No,No,No,35.774964,-78.624328,,No,No,No,No,No,No,No,No,No,No,No,No,No,No,No,No,No,,,,Yes
2045730.254099547863007,736568.231451809406281,154,Davis Drive Park,,,Town of Cary,"1610 Davis Drive, Cary, NC","1610 Davis Drive, Cary, NC",http://www.townofcary.org/Departments/Parks__Recreation___Cultural_Resources/Parks_and_Greenways/Parks/Davis_Drive_Park.htm,,No,No,No,No,No,No,No,No,Yes,No,No,Yes,Yes,No,No,No,No,No,No,No,Yes,35.772788,-78.844874,,No,No,No,No,No,No,No,No,No,No,No,No,No,No,No,No,No,,,,Yes
2044947.500087633728981,737684.124889314174652,159,Davis Drive School Fields,,,Town of Cary,"2101 Davis Drive, Cary, NC","2101 Davis Drive, Cary, NC",http://games.townofcarync.gov/ballfields/displaystatus.php,,No,No,No,No,No,No,No,No,No,No,No,No,No,Yes,No,No,No,No,No,No,No,35.778698,-78.851224,,No,No,No,No,No,No,No,No,No,No,No,No,No,No,No,No,No,,,,Yes
2103178.829162806272507,769243.098516643047333,161,Dixon Drive Park,,,City of Raleigh,"6100 Dixon Dr, Raleigh, NC","6100 Dixon Dr, Raleigh, NC",https://www.raleighnc.gov/parks/content/ParksRec/Articles/Parks/DixonDrive.html,919-831-6640,No,No,No,No,No,No,No,No,No,No,No,No,No,Yes,No,No,No,No,No,No,No,35.863183,-78.651436,,No,No,No,No,No,No,No,No,No,No,No,No,No,No,No,No,No,,,,Yes
2099360.510355889797211,735504.264747723937035,164,Dorothea Dix Park - Blair Dr Entrance,,,City of Raleigh,"900 S Boylan Ave, Raleigh, NC","900 S Boylan Ave, Raleigh, NC",http://www.raleighnc.gov/arts_parks/,919-831-6640,No,No,No,No,No,No,No,No,No,No,Yes,No,No,No,No,No,No,No,No,No,No,35.773941,-78.660449,,No,No,No,No,No,No,No,No,No,No,No,No,No,No,No,No,No,,,,Yes
2101378.414784640073776,732829.700543060898781,167,Dorothea Dix Park - Lake Wheeler Rd Entrance,,,City of Raleigh,"900 S Boylan Ave, Raleigh, NC","900 S Boylan Ave, Raleigh, NC",http://www.raleighnc.gov/arts_parks/,919-831-6640,No,No,No,No,No,No,No,No,No,No,Yes,No,No,No,No,No,No,No,No,No,No,35.773941,-78.660449,,No,No,No,No,No,No,No,No,No,No,No,No,No,No,No,No,No,,,,Yes
2101801.551077470183372,737010.081289887428284,169,Dorothea Dix Park - Western Blvd Entrance,,,City of Raleigh,"900 S Boylan Ave, Raleigh, NC","900 S Boylan Ave, Raleigh, NC",http://www.raleighnc.gov/arts_parks/,919-831-6640,No,No,No,No,No,No,No,No,No,No,Yes,No,No,No,No,No,No,No,No,No,No,35.773941,-78.660449,,No,No,No,No,No,No,No,No,No,No,No,No,No,No,No,No,No,,,,Yes
2061681.891815632581711,738031.589745566248894,172,Dorothy Park,,,Town of Cary,"720 Griffis Street, Cary, NC","720 Griffis Street, Cary, NC",http://www.townofcary.org/Departments/Parks__Recreation___Cultural_Resources/Parks_and_Greenways/Parks/Dorothy_Park.htm,,No,No,No,No,No,No,No,No,No,No,No,No,No,No,No,No,No,No,No,No,No,35.777498,-78.790511,,No,No,No,No,No,No,No,No,No,No,No,No,No,No,No,No,No,,,,Yes
2064917.686853215098381,740201.0555509775877,176,Downtown Park,,,Town of Cary,"319 S. Academy Street, Cary, NC","319 S. Academy Street, Cary, NC",http://www.townofcary.org/recreation-enjoyment/parks-greenways-environment/parks/downtown-park,,Yes,No,No,No,No,No,No,No,No,No,No,No,No,No,No,No,No,No,No,No,No,,,,No,No,No,Yes,Yes,No,No,No,No,No,No,No,No,No,No,No,No,,,,Yes
2113160.858739390969276,734753.685212150216103,177,"Dr. Martin Luther King, Jr. Memorial Gardens",,,City of Raleigh,"900 Rock Quarry Rd, Raleigh, NC","900 Rock Quarry Rd, Raleigh, NC",http://www.raleighnc.gov/arts/content/PRecRecreation/Articles/MLKGardens.html,919-996-4115,No,No,No,No,No,No,No,No,No,No,No,No,No,No,No,No,No,No,No,No,No,35.768297,-78.617504,,No,No,No,No,No,No,No,No,No,No,No,No,No,No,No,No,No,,,,Yes
2124639.388275727629662,781333.378141805529594,181,Durant Nature Preserve,,,City of Raleigh,"8305 Camp Durant Rd, Raleigh, NC","8305 Camp Durant Rd, Raleigh, NC",http://www.raleighnc.gov/arts/content/PRecRecreation/Articles/DurantNaturePark.html,919-870-2871,No,No,No,No,No,No,No,Yes,No,No,Yes,Yes,Yes,Yes,No,No,No,No,No,Yes,Yes,35.894706,-78.578744,,No,No,No,No,No,No,No,No,Yes,No,No,No,No,No,No,No,No,,,,Yes
2143554.995129466056824,818614.298330470919609,190,E. Carroll Joyner Park,,,Town of Wake Forest,"701 Harris Rd, Wake Forest, NC","701 Harris Rd, Wake Forest, NC",http://www.wakeforestnc.gov/joyner-park.aspx,919-435-9560,No,No,No,No,No,No,No,Yes Bank fishing only,Yes,No,No,No,Yes,No,No,No,No,No,No,Yes,Yes,35.998519,-78.514870,,No,No,No,No,No,No,No,No,No,No,No,No,No,No,No,No,No,,,,Yes
2111203.750120803713799,760350.687823817133904,197,Eastgate Park,,,City of Raleigh,"4200 Quail Hollow Dr, Raleigh, NC","4200 Quail Hollow Dr, Raleigh, NC",http://www.raleighnc.gov/arts/content/PRecRecreation/Articles/EastgateParkAndCenter.html,919-872-4156,No,No,No,No,No,No,No,Yes,No,No,Yes,Yes,Yes,Yes,No,Yes,Yes,Yes,No,Yes,Yes,35.839517,-78.623110,,No,No,No,No,No,No,No,No,No,No,No,No,No,No,No,No,No,,,,Yes
2102291.722669303417206,741712.391767144203186,198,Edna Metz Wells Park,,,City of Raleigh,"1600 Park Dr, Raleigh, NC","1600 Park Dr, Raleigh, NC",http://www.raleighnc.gov/arts_parks/,919-831-6640,No,No,No,No,No,No,No,No,No,No,No,No,No,No,No,No,No,No,No,Yes,No,35.788077,-78.655225,,No,No,No,No,No,No,No,No,No,No,No,No,No,No,No,No,No,,,,Yes
2050849.02470189332962,729618.349682316184044,200,Elevate Fitness Course,,,Town of Apex,2200 Laura Duncan Road,,http://www.apexnc.org/1187/Elevate-Fitness-Course,919-249-2304,,,,,,,,,,Yes,,,,,,,,,,,Yes,35.753613,-78.823003,,No,,,,,,,,,,,,,,,No,No,,,,Yes
2105622.701571643352509,731656.39055372774601,201,Eliza Pool Park,,,City of Raleigh,"1600 Fayetteville St, Raleigh, NC","1600 Fayetteville St, Raleigh, NC",http://www.raleighnc.gov/arts/content/PRecParks/Articles/PlaygroundElizaPool.html,919-831-6640,No,No,No,No,No,No,No,No,Yes,No,No,No,Yes,Yes,No,No,No,No,No,Yes,No,35.759211,-78.642966,,No,No,No,No,No,No,No,No,Yes,No,No,No,No,No,No,No,No,,,,Yes
2061533.923935726284981,668193.449238389730453,206,Falcon Park,,,Town of Fuquay-Varina,"611 E. Academy Street, Fuquay-Varina, NC","611 E. Academy Street, Fuquay-Varina, NC",http://www.fuquay-varina.org/departments-and-services/parks-recreation-and-cultural-resources/parks/falcon-park.html,919-552-1430,No,Yes,No,No,No,No,No,No,No,No,Yes,No,Yes,Yes,No,No,No,No,No,Yes,Yes,35.584302,-78.791004,Rental Building with Roof,No,No,No,No,No,No,No,No,No,No,No,No,No,No,No,No,No,,,,Yes
2107033.249931633472443,751054.250051900744438,210,Fallon Park,,,City of Raleigh,"2601 Oxford Rd, Raleigh, NC","2601 Oxford Rd, Raleigh, NC",http://www.raleighnc.gov/arts/content/PRecRecreation/Articles/FallonPark.html,919-831-6640,No,No,No,No,No,No,No,No,No,No,No,No,Yes,No,No,No,No,No,No,Yes,No,35.815724,-78.636626,,No,No,No,No,No,No,No,No,No,No,No,No,No,No,No,No,No,,,,Yes
2108677.454976558685303,816925.284976229071617,219,Falls Lake State Recreation Area - B.W. Wells Rec Area Entrance,,,State of North Carolina,"1630 Bent Rd, Wake Forest","1630 Bent Rd, Wake Forest",https://www.ncparks.gov/falls-lake-state-recreation-area,919-676-1027,,,,Yes,,,,,,,,,,,,,,,,Yes,,,,,No,,,Yes,,,,,,,,,,,,,No,,,,Yes
2089270.796611472964287,834450.075713977217674,220,Falls Lake State Recreation Area - Beaverdam Lake Entrance,,,State of North Carolina,"14600 Creedmoor Rd, Wake Forest","14600 Creedmoor Rd, Wake Forest",https://www.ncparks.gov/falls-lake-state-recreation-area,919-676-1027,,,,Yes,,,,Yes,,,,,Yes,Yes,,,,,,Yes,Yes,,,,No,,,,,,,,,,,,,,,,Yes,,,,Yes
2101311.82633513212204,822721.501730233430862,221,Falls Lake State Recreation Area - Holly Point Entrance,,,State of North Carolina,14424 New Light Rd. Wake Forest,14424 New Light Rd. Wake Forest,https://www.ncparks.gov/falls-lake-state-recreation-area,919-676-1027,,,,Yes,,,,,,,,,Yes,Yes,,,,,,Yes,Yes,,,,No,,,Yes,,,,,,,,,,,,,No,,,,Yes
2092027.65264630317688,823299.575705304741859,222,Falls Lake State Recreation Area - Park Office Entrance,,,State of North Carolina,"13900 Creedmoor Road, Wake Forest","13900 Creedmoor Road, Wake Forest",https://www.ncparks.gov/falls-lake-state-recreation-area,(919) 676-1027,,,,Yes,,,,,,,,,Yes,,,,,,,Yes,Yes,,,,No,,,,,,,,,,,,,,,,No,,,,Yes
2089105.586968138813972,834469.178694143891335,223,Falls Lake State Recreation Area - Sandling Beach Rec Area Entrance,,,State of North Carolina,"14813 Creedmoor Rd, Wake Forest","14813 Creedmoor Rd, Wake Forest",https://www.ncparks.gov/falls-lake-state-recreation-area,(919) 676-1027,,,,,,,,,,,,,Yes,Yes,,,,,,Yes,Yes,,,,No,,,,,,,,,,,,,,,,No,,,,Yes
2100752.822531893849373,816817.574233651161194,224,Falls Lake State Recreation Area - Shinleaf Rec Area Entrance,,,State of North Carolina,"13708 New Light Road, Wake Forest","13708 New Light Road, Wake Forest",https://www.ncparks.gov/falls-lake-state-recreation-area,(919) 676-1027,,,,Yes,,,,,,,,,,,,,,,,Yes,Yes,,,,No,,,Yes,,,,,,,,,,,,,No,,,,Yes
2114260.499584719538689,740347.749811396002769,225,Fisher Street Park,,,City of Raleigh,"324 N Fisher St, Raleigh, NC","324 N Fisher St, Raleigh, NC",http://www.raleighnc.gov/arts/content/PRecRecreation/Articles/FisherStreetPark.html,919-831-6640,No,No,No,No,No,No,No,No,No,No,No,Yes,No,Yes,No,No,No,No,No,No,No,35.783573,-78.614534,,No,No,No,No,No,No,No,No,No,No,No,No,No,No,No,No,No,,,,Yes
2108010.813593298196793,749535.476842731237411,228,Five Points Center for Active Adults,,,City of Raleigh,"2000 Noble Rd, Raleigh, NC","2000 Noble Rd, Raleigh, NC",http://www.raleighnc.gov/arts/content/PRecRecreation/Articles/AdultFivePointsCenter.html,919-996-4730,No,No,No,No,No,No,No,No,No,No,No,No,No,No,No,No,No,No,No,No,No,35.808385,-78.635620,,No,No,No,No,No,No,No,No,No,No,Yes,No,No,No,No,No,No,,,,Yes
2054484.94853238761425,665944.692909151315689,229,Fleming Loop Recreation Park,,,Town of Fuquay-Varina,"301 Fleming Loop Road, Fuquay-Varina, NC","301 Fleming Loop Road, Fuquay-Varina, NC",http://www.fuquay-varina.org/departments-and-services/parks-recreation-and-cultural-resources/parks/fleming-loop-park.html,919-552-1430,No,No,No,No,No,No,No,No,No,No,Yes,No,No,No,No,No,No,No,No,No,No,35.580688,-78.816976,,No,No,No,No,No,No,No,No,No,No,No,No,No,No,No,No,No,,,,Yes
2124565.425497129559517,806826.796314984560013,232,Forest Ridge Park,,,City of Raleigh,"2100 Old NC Hwy 98, Wake Forest, NC","2100 Old NC Hwy 98, Wake Forest, NC",https://www.raleighnc.gov/parks/content/ParksRec/Articles/Parks/ForestRidge.html,,No,No,No,No,No,No,No,No,No,No,No,No,Yes,Yes,No,No,No,No,No,Yes,Yes,,,,No,No,No,No,No,No,No,No,No,No,No,No,No,No,No,No,No,,,,Yes
2131708.455174297094345,772352.538820058107376,233,Fox Road Elementary School Park,,,City of Raleigh,"7101 Fox Rd, Raleigh, NC","7101 Fox Rd, Raleigh, NC",http://www.wcpss.net/foxroades,(919) 850-8845,No,Yes,No,No,No,No,No,No,No,No,Yes,No,No,Yes,No,No,No,No,Yes,No,No,,,,No,No,No,No,No,No,No,No,No,No,No,No,No,No,No,No,No,,,,Yes
2103268.254508882761002,743792.373827651143074,241,Fred Fletcher Park,Borden Building,,City of Raleigh,"805 Washington St, Raleigh, NC","805 Washington St, Raleigh, NC",http://www.raleighnc.gov/arts/content/PRecRecreation/Articles/FletcherPark.html,919-831-6640,No,Yes,No,No,No,No,No,No,No,No,Yes,Yes,Yes,Yes,No,Yes,Yes,Yes,No,Yes,No,35.792833,-78.649620,,No,No,No,No,No,No,No,No,No,No,No,No,No,No,No,No,No,,,,Yes
2052932.561545297503471,740885.078789234161377,247,Fred G. Bond Metro Park,,,Town of Cary,"801 High House Road, Cary, NC","801 High House Road, Cary, NC",http://www.townofcary.org/Departments/Parks__Recreation___Cultural_Resources/Parks_and_Greenways/Parks/Fred_G__Bond_Metro_Park.htm,,No,Yes,Yes,No,No,No,No,Yes,Yes,No,Yes,No,Yes,No,No,Yes,No,No,No,Yes,Yes,35.790665,-78.833094,,No,No,No,No,No,No,No,No,No,No,No,No,No,No,No,No,No,,,,Yes
2058158.949058383703232,666992.597637474536896,252,Fuquay-Varina Downtown Dog Park,,,Town of Fuquay-Varina,"110 Woodland Drive, Fuquay-Varina, NC","110 Woodland Drive, Fuquay-Varina, NC",http://www.fuquay-varina.org/departments-and-services/parks-recreation-and-cultural-resources/parks/dog-park.html,919-552-1430,No,No,No,No,No,Yes,No,No,No,No,No,No,No,No,No,No,No,No,No,No,No,35.583051,-78.804481,,No,No,No,No,No,No,No,No,No,No,No,No,No,No,No,No,No,,,,Yes
2072400.495050296187401,674880.350890815258026,253,Fuquay-Varina Elementary School Park,,,Town of Fuquay-Varina,"6600 Johnson Pond Rd, Fuquay-Varina, NC","6600 Johnson Pond Rd, Fuquay-Varina, NC",http://www.wcpss.net/fuquayvarinaes,(919) 557-2566,,,,,,,,,,,Yes,Yes,,Yes,,,,,,,,,,,No,,,,,,,,,,,,,,,,No,,,,Yes
2060680.985680967569351,672176.347440555691719,254,Fuquay-Varina High School Tennis Courts,,,Town of Fuquay-Varina,"201 Bengal Blvd., Fuquay-Varina, NC","201 Bengal Blvd., Fuquay-Varina, NC",http://www.fuquay-varina.org/departments-and-services/parks-recreation-and-cultural-resources/parks/fvhs-tennis-courts.html,919-552-1430,No,No,No,No,No,No,No,No,No,No,No,No,No,No,No,No,No,Yes,No,No,No,35.599922,-78.792503,,No,No,No,No,No,No,No,No,No,No,No,No,No,No,No,No,No,,,,Yes
2060004.793463796377182,667373.48696756362915,259,Fuquay-Varina Museums at Ashworth Park,,,Town of Fuquay-Varina,"131 South Fuquay Avenue, Fuquay-Varina, NC","131 South Fuquay Avenue, Fuquay-Varina, NC",http://www.fuquay-varina.org/Facilities/Facility/Details/FuquayVarina-Museums-at-Ashworth-Park-14,919-552-1430,No,No,No,No,No,No,No,No,No,No,No,No,No,Yes,No,No,No,No,No,Yes,No,,,Fuquay-Varina Town Museum adjacent to park,No,,,,,,,,,,,,,,,,No,,,,Yes
2059347.289857551455498,665699.98572139441967,263,Fuquay Mineral Spring Park,,,Town of Fuquay-Varina,"105 West Spring Street, Fuquay-Varina, NC","105 West Spring Street, Fuquay-Varina, NC",http://www.fuquay-varina.org/departments-and-services/parks-recreation-and-cultural-resources/parks/fuquay-mineral-spring-park.html,919-552-1430,No,No,No,No,No,No,No,No,No,No,No,No,No,No,No,No,No,No,No,Yes,No,35.580356,-78.800427,Picnic Tables (not sheltered),No,No,No,No,No,No,No,No,No,No,No,No,No,No,No,No,No,,,,Yes
2109725.382342636585236,709357.660544976592064,266,Garner Jaycee Park,,,Town of Garner,"1300 Vandora Springs Road, Garner NC, 27529","1300 Vandora Springs Road, Garner NC, 27529",http://www.garnernc.gov/Departments/Parks%20and%20Recreation/Parks.aspx?ID=18,919-773-4445,No,No,No,No,No,No,No,No,No,No,No,No,Yes,Yes,No,No,No,No,No,No,No,35.699070,-78.628396,,No,No,No,No,No,No,No,No,No,No,No,No,No,No,No,No,No,,,,Yes
2117892.440483555197716,712269.794156387448311,268,Garner Recreational Park,,,Town of Garner,"221 East Garner Road, Garner NC, 27529","221 East Garner Road, Garner NC, 27529",http://www.garnernc.gov/Departments/Parks%20and%20Recreation/Parks.aspx?ID=5,919-773-4443,No,Yes,No,No,No,No,No,No,No,No,No,No,No,Yes,No,No,No,Yes,No,Yes,Yes,35.709444,-78.602809,,No,No,No,No,No,No,No,No,No,No,No,No,No,No,No,No,No,,,,Yes
2204279.921907722949982,757282.442647978663445,271,Gill Street Park,,,Town of Zebulon,"600 N Privette St, Zebulon, NC",,https://www.townofzebulon.org/services/parks-and-recreation/parks-facilities,919-823-0432,,,,,,,,,,,,Yes,,Yes,,,,,,,,,,,No,,,,,,,,,,,,,,,,No,,,,Yes
2093352.759904220700264,756074.971637725830078,276,Glen Eden Pilot Park,,,City of Raleigh,"1500 Glen Eden Dr, Raleigh, NC","1500 Glen Eden Dr, Raleigh, NC",http://www.raleighnc.gov/arts/content/PRecRecreation/Articles/GlenEdenPilotParkAndCenter.html,919-831-6833,No,No,No,No,No,No,No,No,Yes,No,No,Yes,Yes,Yes,No,No,Yes,Yes,No,No,No,35.828331,-78.683523,,No,No,No,No,No,Yes,No,No,No,No,No,No,No,No,No,No,No,,,,Yes
2040772.704959556460381,755030.166968807578087,281,Good Hope Farm,,,Town of Cary,"1580 Morrisville Carpenter Road, Cary, NC",,http://www.townofcary.org/recreation-enjoyment/parks-greenways-environment/community-gardens-urban-agriculture/good-hope-farm,,,,,,,,,,,,,,,,,,,,,,,,,,No,No,No,No,No,No,No,No,No,No,No,No,No,No,No,No,No,,,,Yes
2123259.267676383256912,784628.848584979772568,282,Green Hills County Park,,,Wake County,"9300 Deponie Dr., Raleigh, NC  27614","9300 Deponie Dr., Raleigh, NC  27614",http://www.wakegov.com/parks/northwake/Pages/default.aspx,919-856-6670,No,No,No,No,No,No,No,No,No,No,Yes,No,Yes,Yes,No,No,No,No,No,Yes,Yes,35.904872,-78.584153,,No,No,No,No,No,No,No,No,No,No,No,No,No,No,No,No,Yes,No,No,No,Yes
2041052.593179300427437,747744.44991298019886,288,Green Hope Elementary Park,,,Town of Cary,"2750 Louis Stephens Drive, Cary, NC","2750 Louis Stephens Drive, Cary, NC",http://www.townofcary.org/recreation-enjoyment/parks-greenways-environment/parks/green-hope-elementary-park,,No,No,No,No,No,No,No,No,No,No,Yes,Yes,Yes,Yes,No,No,No,No,No,Yes,Yes,35.810583,-78.863140,Sand Volleyball Courts,No,No,No,No,No,No,No,No,Yes,No,No,No,No,No,No,No,No,,,,Yes
2038539.851485639810562,747837.362784892320633,291,Green Hope High School Fields,,,Town of Cary,"2500 Carpenter Upchurch Road, Cary, NC","2500 Carpenter Upchurch Road, Cary, NC",http://games.townofcarync.gov/ballfields/displaystatus.php,,No,Yes,No,No,No,No,No,No,No,No,No,No,No,No,No,No,No,No,No,No,No,35.804750,-78.866736,,No,No,No,No,No,No,No,No,No,No,No,No,No,No,No,No,No,,,,Yes
2121293.63578088581562,761078.145686477422714,292,Green Road Park,,,City of Raleigh,"4201 Green Rd, Raleigh, NC","4201 Green Rd, Raleigh, NC",http://www.raleighnc.gov/arts/content/PRecRecreation/Articles/GreenRoadCommunityCenter.html,919-872-4140,No,Yes,No,No,No,No,No,No,No,Yes,No,Yes,Yes,Yes,No,Yes,No,Yes,No,No,Yes,35.840953,-78.591794,,No,No,No,No,No,No,No,No,Yes,No,No,No,No,Yes,No,No,No,,,,Yes
2104169.505659133195877,716830.006492644548416,302,Greenbrier Park,,,Town of Garner,"613 Winterlochen Road, Garner NC, 27529","613 Winterlochen Road, Garner NC, 27529",http://www.garnernc.gov/Departments/Parks%20and%20Recreation/Parks.aspx?ID=17,919-773-4444,No,No,No,No,No,No,No,No,No,No,No,No,Yes,Yes,No,No,No,Yes,No,No,No,35.714639,-78.643521,,No,No,No,No,No,No,No,No,No,No,No,No,No,No,No,No,No,,,,Yes
2100870.000119060277939,777781.437411054968834,303,Greystone Recreation Center,,,City of Raleigh,"7713-55 Leadmine Rd, Raleigh, NC","7713 Leadmine Rd, Raleigh, NC",http://www.raleighnc.gov/arts/content/PRecRecreation/Articles/GreystoneRecreationCenter.html,919-996-4848,No,No,No,No,No,No,No,No,No,No,No,No,No,Yes,No,Yes,Yes,No,No,No,Yes,35.886819,-78.660220,,No,No,No,No,No,No,No,No,No,No,No,No,No,No,No,No,No,,,,Yes
2145658.733704134821892,810586.973177805542946,307,H.L. Miller Park,,,Town of Wake Forest,"401 Elm Ave, Wake Forest, NC","401 Elm Ave, Wake Forest, NC",http://www.wakeforestnc.gov/miller-park.aspx,919-435-9560,No,No,No,No,No,No,No,No,Yes,No,No,No,No,No,No,No,No,No,No,Yes,No,35.975120,-78.507856,,No,No,No,No,No,No,No,No,No,No,No,No,No,No,No,No,No,,,,Yes
2107248.393202140927315,743868.641391649842262,308,Halifax Park,,,City of Raleigh,"1015 Halifax St, Raleigh, NC","1015 Halifax St, Raleigh, NC",http://www.raleighnc.gov/arts/content/PRecRecreation/Articles/HalifaxCommunityCenter.html,919-831-6378,No,No,No,No,No,No,No,No,No,Yes,Yes,Yes,No,Yes,No,Yes,No,No,No,No,Yes,35.793224,-78.638720,,No,No,No,No,No,No,No,No,No,No,No,No,No,No,No,No,No,,,,Yes
2044417.903049722313881,721613.777764976024628,312,Halle Cultural Arts Center,,,Town of Apex,237 N Salem Street,,http://www.apexnc.org/454/Halle-Cultural-Arts-Center,919-249-1120,Yes,No,No,No,No,No,No,No,No,No,No,No,No,No,No,No,No,No,No,No,Yes,35.732647,-78.850331,,No,No,No,Yes,No,No,No,No,No,No,No,No,No,No,No,No,No,,,,Yes
2064930.635974302887917,720438.133462727069855,315,Harold D. Ritter Park,,,Town of Cary,"301 Lochmere Drive West, Cary, NC","301 Lochmere Drive West, Cary, NC",http://www.townofcary.org/Departments/Parks__Recreation___Cultural_Resources/Parks_and_Greenways/Parks/Harold_D__Ritter_Park.htm,,No,Yes,No,No,No,No,No,No,Yes,No,Yes,Yes,Yes,No,No,No,No,No,No,No,Yes,35.729255,-78.781262,,No,No,No,No,No,No,No,No,No,No,No,No,No,No,No,No,No,,,,Yes
2153359.343302890658379,742936.903753817081451,316,Harper Park,,,Town of Knightdale,"207 Main St, Knightdale, NC","207 Main St, Knightdale, NC",http://www.knightdalenc.gov/index.aspx?page=351,919-217-2230,No,No,No,No,No,No,No,No,No,No,No,No,Yes,Yes,No,No,No,Yes,No,No,Yes,,,,No,No,No,No,No,No,No,No,No,No,No,No,No,No,No,No,No,,,,Yes
2024492.37958063185215,684314.595801815390587,319,Harris Lake County Park,,,Wake County,"2112 County Park Dr., New Hill, NC  27562","2112 County Park Dr., New Hill, NC  27562",http://www.wakegov.com/parks/harrislake/Pages/default.aspx,919-387-4342,No,No,No,Yes,Yes,No,Yes,Yes,No,No,Yes,No,Yes,Yes,No,No,No,No,No,Yes,Yes,35.631378,-78.921194,,No,No,No,No,No,No,No,No,No,No,No,No,No,No,No,No,Yes,No,No,No,Yes
2062991.125089555978775,739879.250092223286629,320,Heater Park,,,Town of Cary,"400 S West Street, Cary, NC","400 S West Street, Cary, NC",http://www.townofcary.org/Departments/Parks__Recreation___Cultural_Resources/Parks_and_Greenways/Parks/Heater_Park.htm,,No,No,No,No,No,No,No,No,No,No,No,No,No,Yes,No,No,No,No,No,No,No,35.782560,-78.786823,,No,No,No,No,No,No,No,No,No,No,No,No,No,No,No,No,No,,,,Yes
2064360.846431463956833,718168.298107400536537,322,Hemlock Bluffs Nature Preserve,,,Town of Cary,"2616 Kildaire Farm Road, Cary, NC","2616 Kildaire Farm Road, Cary, NC",http://www.townofcary.org/Departments/Parks__Recreation___Cultural_Resources/Parks_and_Greenways/Parks/Stevens_Nature_Center_At_Hemlock_Bluffs_Nature_Preserve.htm,,No,No,No,No,No,No,Yes,No,No,No,No,No,No,No,No,No,No,No,No,Yes,Yes,35.723512,-78.782955,,No,No,No,No,No,No,No,No,No,No,No,No,No,No,No,No,No,,,,Yes
2059042.276688054203987,681333.329454645514488,323,Herbert Akins Fields,,,Town of Fuquay-Varina,"2255 Herbert Akins Road, Fuquay-Varina, NC","2255 Herbert Akins Road, Fuquay-Varina, NC",http://www.fuquay-varina.org/departments-and-services/parks-recreation-and-cultural-resources/parks/herbert-akins-fields.html,919-552-1430,No,No,No,No,No,No,No,No,No,No,Yes,No,No,No,No,No,No,No,No,No,No,35.620535,-78.803430,,No,No,No,No,No,No,No,No,No,No,No,No,No,No,No,No,No,,,,Yes
2065153.242812559008598,742568.636445730924606,324,Herbert C. Young Community Center,,,Town of Cary,"316 North Academy Street, Cary, NC","316 North Academy Street, Cary, NC",http://www.townofcary.org/Departments/Parks__Recreation___Cultural_Resources/Facilities/Community_Centers/Herbert_C__Young_Community_Center.htm,,No,No,No,No,No,No,No,No,No,No,No,No,No,No,No,Yes,No,No,No,No,No,35.789595,-78.780620,,No,No,No,No,No,No,No,No,No,No,No,No,No,No,No,No,No,,,,Yes
2145726.440917804837227,797164.212293729186058,327,Heritage High Park,,,Town of Wake Forest,"1140 Forestville Rd, Wake Forest, NC","1140 Forestville Rd, Wake Forest, NC",http://www.wakeforestnc.gov/heritage-high-park.aspx,919-435-9560,No,Yes,No,No,No,No,No,No,No,No,Yes,No,No,No,No,No,No,Yes,No,No,Yes,35.937762,-78.507347,,No,No,No,No,No,No,No,No,No,No,No,No,No,No,No,No,No,,,,Yes
2105997.41309255361557,725985.703076228499413,332,Hertford Village Park,,,City of Raleigh,"205 Blanchard St, Raleigh, NC","205 Blanchard St, Raleigh, NC",http://www.raleighnc.gov/arts/content/PRecRecreation/Articles/HertfordVillagePark.html,919-831-6640,No,No,No,No,No,No,No,No,No,No,No,Yes,No,Yes,No,No,No,No,No,No,No,35.744251,-78.643005,,No,No,No,No,No,No,No,No,No,No,No,No,No,No,No,No,No,,,,Yes
2122069.679176300764084,750899.728379309177399,333,Hill Street Park,,,City of Raleigh,"2307 Hill St, Raleigh, NC","2307 Hill St, Raleigh, NC",http://www.raleighnc.gov/arts_parks/,919-831-6640,No,No,No,No,No,No,No,No,No,No,No,No,Yes,Yes,No,No,No,No,No,No,No,35.812907,-78.590708,,No,No,No,No,No,No,No,No,No,No,No,No,No,No,No,No,No,,,,Yes
2127369.524875804781914,735377.258440062403679,334,Historic Oak View County Park,,,Wake County,"4028 Carya Dr., Raleigh, NC  27610","4028 Carya Dr., Raleigh, NC  27610",http://www.wakegov.com/parks/oakview/Pages/default.aspx,919-250-1013,No,No,No,No,No,No,No,Yes,No,No,No,No,Yes,No,No,No,No,No,No,Yes,Yes,35.770019,-78.569734,,No,No,No,No,No,No,No,No,No,No,No,No,No,No,Yes,No,No,Yes,Yes,No,Yes
2093421.647561714053154,717694.717361643910408,335,Historic Yates Mill County Park,,,Wake County,"4620 Lake Wheeler Rd., Raleigh, NC  27603","4620 Lake Wheeler Rd., Raleigh, NC  27603",http://www.wakegov.com/parks/yatesmill/Pages/default.aspx,919-856-6675,No,No,No,No,No,No,Yes,Yes,No,No,No,No,No,No,No,No,No,No,No,Yes,Yes,35.718682,-78.686134,,No,No,No,No,No,No,No,No,No,No,No,No,No,No,Yes,No,No,No,Yes,No,Yes
2143783.338176727294922,811249.714962556958199,339,Holding Park,,,Town of Wake Forest,"133 W Owen Ave, Wake Forest, NC","133 W Owen Ave, Wake Forest, NC",http://www.wakeforestnc.gov/holding-park.aspx,919-435-9560,No,Yes,No,No,No,No,No,No,No,No,No,Yes,Yes,Yes,Yes,Yes,No,Yes,No,Yes,No,35.977659,-78.513536,,No,No,No,No,No,No,No,No,No,No,No,No,No,No,No,No,No,,,,Yes
2111821.974606141448021,784029.406542390584946,341,Honeycutt Park,,,City of Raleigh,"1032 Clear Creek Farm Rd, Raleigh, NC","1032 Clear Creek Farm Rd, Raleigh, NC",http://www.raleighnc.gov/arts/content/PRecRecreation/Articles/HoneycuttPark.html,919-872-4156,No,Yes,No,No,No,No,No,No,Yes,No,No,Yes,Yes,Yes,No,No,No,No,No,No,Yes,35.902863,-78.625586,,No,No,No,No,No,No,No,No,Yes,No,No,No,No,No,No,No,No,,,,Yes
2070949.94644221663475,666839.948008388280869,342,Honeycutt Road Park,,,Town of Fuquay-Varina,"101 Fitness Drive, Fuquay-Varina, NC","101 Fitness Drive, Fuquay-Varina, NC",http://www.fuquay-varina.org/departments-and-services/parks-recreation-and-cultural-resources/parks/honeycutt-road-park.html,919-552-1430,No,No,No,No,No,No,No,No,No,No,Yes,No,Yes,Yes,No,No,No,Yes,Yes,No,Yes,35.581754,-78.762361,,No,No,No,No,No,No,No,No,No,No,No,No,No,No,No,No,No,,,,Yes
2138296.060765475034714,778348.244676396250725,346,Horseshoe Farm Nature Preserve,,,City of Raleigh,"2900 Horseshoe Farm Rd, Raleigh, NC","2900 Horseshoe Farm Rd, Raleigh, NC",http://www.raleighnc.gov/arts_parks/,919-831-6640,No,No,No,No,No,No,No,No,No,No,No,No,No,No,No,No,No,No,No,No,No,35.885136,-78.536053,,No,No,No,No,No,No,No,No,No,No,No,No,No,No,No,No,No,,,,Yes
2045260.974854379892349,723312.491559147834778,347,Hunter Street Park,,,Town of Apex,"1250 Ambergate Station, Apex, NC","1250 Ambergate Station, Apex, NC",https://www.apexnc.org/798/Hunter-Street-Park,919-249-3402,No,Yes,No,No,No,Yes,No,No,No,No,Yes,No,Yes,Yes,No,No,No,No,No,Yes,Yes,35.737466,-78.847887,,No,No,No,No,No,No,No,No,No,No,No,No,No,No,No,No,No,,,,Yes
2095995.869775474071503,746682.690225481987,354,Hymettus Woods Park,,,City of Raleigh,"901 Dixie Trl, Raleigh, NC","901 Dixie Trl, Raleigh, NC",http://www.raleighnc.gov/arts_parks/,919-831-6640,No,No,No,No,No,No,No,No,No,No,No,No,No,No,No,No,No,No,No,Yes,No,35.801720,-78.676728,,No,No,No,No,No,No,No,No,No,No,No,No,No,No,No,No,No,,,,Yes
2050618.412302225828171,754252.343393221497536,358,Indian Creek Greenway and Trailhead,,,Town of Morrisville,101 Town Hall Drive,"Morrisville, NC 27560",http://www.townofmorrisville.org/government/departments-services/parks-recreation-cultural-resources/parks-and-greenways/indian-creek-greenway-and-trailhead,919-463-7110,No,No,No,No,No,No,No,No,Yes,No,No,No,Yes,Yes,No,No,No,No,No,No,Yes,,,,No,No,No,No,No,No,No,No,No,No,No,No,No,No,No,No,No,,,,Yes
2098113.578466549515724,743682.989203900098801,362,Isabella Cannon Park,,,City of Raleigh,"2601 Kilgore Ave, Raleigh, NC","2601 Kilgore Ave, Raleigh, NC",http://www.raleighnc.gov/arts/content/PRecRecreation/Articles/IsabellaCannonPark.html,919-831-6640,No,Yes,No,No,No,No,No,No,No,No,No,Yes,Yes,Yes,No,No,No,No,No,No,Yes,35.792632,-78.669157,,No,No,No,No,No,No,No,No,No,No,No,No,No,No,No,No,No,,,,Yes
2186713.000348716974258,739554.24975797533989,363,J Ashley Wall Town Square,,,Town of Wendell,"14 W Third St, Wendell, NC","14 W Third St, Wendell, NC",http://www.townofwendell.com/departments/parks-and-recreation/facilites/town-square,,No,No,No,No,No,No,No,No,No,No,No,No,Yes,No,No,No,No,No,No,No,No,,,,No,No,No,No,No,No,No,No,No,No,No,No,No,No,No,No,No,,,,Yes
2149727.999843806028366,816359.799886733293533,366,J.B. Flaherty Park,,,Town of Wake Forest,"1226 N White St, Wake Forest, NC","1226 N White St, Wake Forest, NC",http://www.wakeforestnc.gov/residents-parksrecreation_facilities_flaherty.aspx,919-435-9560,No,Yes,No,No,No,Yes,No,Yes - Bank fishing only,Yes,Yes,No,Yes,Yes,No,No,Yes,No,Yes,No,Yes,Yes,35.992105,-78.491160,,No,No,No,No,No,No,No,No,No,No,No,No,No,No,No,No,No,,,,Yes
2069471.849660888314247,714077.209176734089851,369,Jack Smith Park,,,Town of Cary,"9725 Penny Road, Cary, NC","9725 Penny Road, Cary, NC",http://www.townofcary.org/recreation-enjoyment/parks-greenways-environment/parks/jack-smith-park,,No,No,No,No,No,Yes,No,No,Yes,No,No,No,Yes,Yes,No,No,No,No,No,No,Yes,,,,No,No,No,No,No,No,No,No,No,No,No,No,No,No,No,No,No,,,,Yes
2058497.689850717782974,668665.650721803307533,370,James A. Campbell Park,,,Town of Fuquay-Varina,"115 West Jones Street, Fuquay-Varina, NC","115 West Jones Street, Fuquay-Varina, NC",http://www.fuquay-varina.org/departments-and-services/parks-recreation-and-cultural-resources/parks/west-jones-street-park.html,919-552-1430,No,No,No,No,No,No,No,No,No,No,No,No,Yes,Yes,No,No,No,No,No,No,Yes,35.586920,-78.801134,Restrooms are Portajohns,No,No,No,No,No,No,No,No,No,No,No,No,No,No,No,No,No,,,,Yes
2099506.999892309308052,746398.000178053975105,374,Jaycee Park,,,City of Raleigh,"2405 Wade Ave, Raleigh, NC","2405 Wade Ave, Raleigh, NC",http://www.raleighnc.gov/arts/content/PRecRecreation/Articles/JayceeCommunityCenter.html,919-831-6833,No,Yes,No,No,No,No,No,No,Yes,Yes,No,No,Yes,Yes,No,Yes,No,Yes,No,Yes,No,35.799256,-78.663600,,No,No,No,No,No,No,No,No,Yes,No,No,No,No,No,No,No,No,,,,Yes
2110228.553908467292786,735054.31879723072052,375,John Chavis Memorial Park,,,City of Raleigh,"505 Martin Luther King Jr Blvd, Raleigh, NC","505 Martin Luther King Jr Blvd, Raleigh, NC",http://www.raleighnc.gov/arts/content/PRecRecreation/Articles/ChavisCommunityCenter.html,919-831-6989,No,Yes,No,No,No,No,No,No,Yes,Yes,Yes,No,Yes,Yes,Yes,Yes,No,Yes,Yes,Yes,No,35.769587,-78.630046,,No,Yes,No,No,No,No,No,No,No,No,No,No,No,No,No,No,No,,,,Yes
2108886.644518807530403,735205.287983477115631,387,John P Top Greene Park,,,City of Raleigh,"401 Martin Luther King Jr. Blvd, Raleigh, NC","401 Martin Luther King Jr. Blvd, Raleigh, NC",http://www.raleighnc.gov/arts/content/PRecRecreation/Articles/TopGreene.html,919-831-6527,No,No,No,No,No,No,No,No,No,No,No,No,No,No,No,Yes,Yes,No,No,No,No,35.769536,-78.633228,,No,No,No,No,No,No,No,No,No,No,No,No,No,No,No,No,No,,,,Yes
2050744.376945301890373,694297.754313141107559,390,Jones Park,,,Town of Holly Springs,"405 School Days Ln., Holly Springs, NC","405 School Days Ln., Holly Springs, NC",http://www.hollyspringsnc.us/index.aspx?NID=328,(919) 557-9600,No,No,No,No,No,No,No,No,No,No,No,No,No,No,No,No,No,No,No,No,No,35.737776,-78.902547,,No,No,No,No,No,No,No,No,No,No,No,No,No,No,No,No,No,,,,Yes
2108770.175591632723808,734249.423425391316414,391,Junious N. Sorrell Park,,,City of Raleigh,"416 E Lee St, Raleigh, NC","416 E Lee St, Raleigh, NC",http://www.raleighnc.gov/parks/content/ParksRec/Articles/Parks/LeeStreet.html,919-831-6640,No,No,No,No,No,No,No,No,No,No,No,No,No,Yes,No,No,No,No,No,No,No,,,,No,No,No,No,No,No,No,No,No,No,No,No,No,No,No,No,No,,,,Yes
2085565.249888718128204,736893.559869393706322,393,Kaplan Park,,,City of Raleigh,"5208 Kaplan Dr, Raleigh, NC","5208 Kaplan Dr, Raleigh, NC",http://www.raleighnc.gov/arts_parks/,919-831-6640,No,No,No,No,No,No,No,No,No,No,No,No,No,No,No,No,No,No,No,Yes,No,35.774792,-78.711896,,No,No,No,No,No,No,No,No,No,No,No,No,No,No,No,No,No,,,,Yes
2031733.157421886920929,720336.390227898955345,395,Kelly Glen Park,,,Town of Apex,"1701 Kelly Glen Ln., Apex, NC","1701 Kelly Glen Ln., Apex, NC",https://www.apexnc.org/796/Neighborhood-Parks,919-249-3402,No,No,No,No,No,No,No,No,No,No,No,No,Yes,Yes,No,No,No,No,No,No,No,35.729964,-78.892835,,No,No,No,No,No,No,No,No,No,No,No,No,No,No,No,No,No,,,,Yes
2031079.020606800913811,721288.303022220730782,396,Kelly Road Park,,,Town of Apex,"1609 Kelly Rd., Apex, NC","1609 Kelly Rd., Apex, NC",https://www.apexnc.org/799/Kelly-Road-Park,919-249-3402,No,Yes,No,No,No,No,No,No,Yes,No,No,No,Yes,Yes,No,No,No,Yes,No,Yes,No,35.731700,-78.894811,,No,No,No,No,No,No,No,No,No,No,No,No,No,No,No,No,No,,,,Yes
2089970.022575214505196,737814.190574064850807,401,Kentwood Park,,,City of Raleigh,"4531 Kaplan Dr, Raleigh, NC","4531 Kaplan Dr, Raleigh, NC",http://www.raleighnc.gov/arts/content/PRecRecreation/Articles/KentwoodPark.html,919-831-6640,No,Yes,No,No,Yes,No,No,No,No,No,No,No,Yes,Yes,No,No,No,Yes,No,No,Yes,35.776066,-78.695965,,No,No,No,No,No,No,No,No,No,No,No,No,No,No,No,No,No,,,,Yes
2113301.407342806458473,726103.124429315328598,406,Kingwood Forest Park,,,City of Raleigh,"2610 Evers Dr, Raleigh, NC","2610 Evers Dr, Raleigh, NC",http://www.raleighnc.gov/arts/content/PRecParks/Articles/PlaygroundKingwoodForest.html,919-831-6640,No,No,No,No,No,No,No,No,No,No,No,Yes,Yes,Yes,No,No,No,No,No,No,No,35.744608,-78.618476,,No,No,No,No,No,No,Yes,No,No,No,No,No,No,No,No,No,No,,,,Yes
2058315.749925881624222,665248.125076562166214,408,Kinton Soccer Fields,,,Town of Fuquay-Varina,"300 West Ransom Street, Fuquay-Varina, NC","300 West Ransom Street, Fuquay-Varina, NC",http://www.fuquay-varina.org/departments-and-services/parks-recreation-and-cultural-resources/parks/kinton-soccer-fields.html,919-552-1430,No,No,No,No,No,No,No,No,No,No,Yes,No,No,No,No,No,No,No,No,No,No,35.577672,-78.802218,,No,No,No,No,No,No,No,No,No,No,No,No,No,No,No,No,No,,,,Yes
2109401.067702546715736,751831.816410139203072,416,Kiwanis Park,,,City of Raleigh,"2525 Noble Rd, Raleigh, NC","2525 Noble Rd, Raleigh, NC",http://www.raleighnc.gov/arts/content/PRecRecreation/Articles/KiwanisParkAndCenter.html,919-870-2880,No,No,No,No,No,No,No,No,No,No,No,Yes,Yes,Yes,No,Yes,Yes,No,No,No,No,35.817179,-78.631775,,No,No,No,No,No,No,Yes,No,Yes,No,No,No,No,No,No,No,No,,,,Yes
2156368.149949297308922,749433.247388392686844,419,Knightdale Community Park,,,Town of Knightdale,"1137 Old Knight Rd, Knightdale, NC","1137 Old Knight Rd, Knightdale, NC",http://www.knightdalenc.gov/index.aspx?page=347,919-217-2231,No,Yes,No,No,No,No,No,No,No,No,Yes,No,No,No,No,No,No,No,No,No,No,,,,No,No,No,No,No,No,No,No,No,No,No,No,No,No,No,No,No,,,,Yes
2138527.059319213032722,744252.988720059394836,422,Knightdale Community Pool,,,Town of Knightdale,"202 Milburnie Road Knightdale, NC",,https://www.knightdalenc.gov/departments/parks-recreation-and-cultural-programs/parks-greenways-and-facilities/knightdale-1,919-217-2232,,,,,,,,,,,,,,,Yes,,,,,,Yes,,,,No,,,,,,,,,,,,,,,,No,,,,Yes
2155090.731900468468666,740649.410625398159027,424,Knightdale Elementary School Park,,,Town of Knightdale,"109 Ridge St, Knightdale, NC","109 Ridge St, Knightdale, NC",https://www.knightdalenc.gov/departments/parks-recreation-and-cultural-programs/parks-greenways-and-facilities,(919) 266-8540,,Yes,,,,,,,,,Yes,,,Yes,,,,,,,,,,,No,,,,,,,,,,,,,,,,No,,,,Yes
2151877.559521049261093,747445.327479720115662,428,Knightdale Environmental Park,,,Town of Knightdale,"1385 N Smithfield Rd, Knightdale, NC","1385 N Smithfield Rd, Knightdale, NC",http://www.knightdalenc.gov/index.aspx?page=350,919-217-2230,No,No,No,No,No,No,No,No,No,No,No,No,Yes,No,No,No,No,No,No,Yes,No,,,,No,No,No,No,No,No,No,No,No,No,No,No,No,No,No,No,No,,,,Yes
2155437.362768888473511,744967.081780061125755,433,Knightdale Station Park,,,Town of Knightdale,"810 North First Avenue, Knightdale, NC","810 North First Avenue, Knightdale, NC",http://www.knightdalenc.gov/index.aspx?page=562,,No,Yes,No,No,No,Yes,No,No,No,No,Yes,No,Yes,Yes,No,No,No,No,No,Yes,,,,,No,No,No,No,No,No,No,No,No,No,No,No,No,No,No,No,No,,,,Yes
2060902.663715302944183,720659.980788066983223,439,Koka Booth Amphitheatre,,,Town of Cary,"8003 Regency Parkway, Cary, NC","8003 Regency Parkway, Cary, NC",http://boothamphitheatre.com/,,No,No,No,No,No,No,No,No,Yes,No,No,No,No,No,No,No,No,No,No,Yes,Yes,35.728911,-78.795393,,No,No,No,Yes,No,No,No,No,No,No,No,No,No,No,No,No,No,,,,Yes
2110407.77730330824852,700835.207773640751839,440,Lake Benson Park,,,Town of Garner,"921 Buffaloe Road, Garner NC, 27529","921 Buffaloe Road, Garner NC, 27529",http://www.garnernc.gov/Departments/Parks%20and%20Recreation/Parks.aspx?ID=13,919-772-4688,No,No,Yes,No,No,Yes,No,Yes,Yes,No,Yes,No,Yes,Yes,No,No,No,No,No,Yes,Yes,35.671913,-78.627150,,No,No,No,No,No,No,No,No,No,No,No,No,No,No,No,No,No,,,,Yes
2058962.927765384316444,762751.45730048418045,443,Lake Crabtree County Park,,,Wake County,"1400 Aviation Pkwy., Morrisville, NC  27560","1400 Aviation Pkwy., Morrisville, NC  27560",http://www.wakegov.com/parks/lakecrabtree/Pages/default.aspx,919-460-3390,No,No,Yes,Yes,No,No,Yes,Yes,No,No,Yes,No,Yes,Yes,No,No,No,No,No,Yes,Yes,35.843908,-78.795222,,No,No,No,No,No,No,No,No,Yes,No,No,No,No,No,No,No,Yes,No,Yes,No,Yes
2084771.606790974736214,732632.493260309100151,446,Lake Johnson Nature Preserve,,,City of Raleigh,"4601 Avent Ferry Rd, Raleigh, NC","4601 Avent Ferry Rd, Raleigh, NC",http://www.raleighnc.gov/arts/content/PRecRecreation/Articles/LakeJohnsonPark.html,919-233-2121,No,No,No,No,No,No,No,No,Yes,No,No,No,Yes,No,No,No,No,No,No,No,No,35.757821,-78.714030,,No,No,No,No,No,No,No,No,No,No,No,No,No,No,No,No,No,,,,Yes
2084771.606790974736214,732632.493260309100151,447,Lake Johnson Park,,,City of Raleigh,"4601 Avent Ferry Rd, Raleigh, NC","4601 Avent Ferry Rd, Raleigh, NC",http://www.raleighnc.gov/arts/content/PRecRecreation/Articles/LakeJohnsonPark.html,919-233-2121,No,No,Yes,Yes,No,No,No,No,Yes,No,No,No,Yes,No,No,No,No,No,No,No,Yes,35.763210,-78.713810,,No,No,No,No,No,No,No,No,No,No,No,No,No,No,No,No,No,,,,Yes
2084166.022372215986252,735172.14205239713192,458,Lake Johnson Pool,,,City of Raleigh,"1416 Athens Dr, Raleigh, NC","1416 Athens Dr, Raleigh, NC",http://www.raleighnc.gov/arts_parks/,919-233-2111,No,No,No,No,No,No,No,No,Yes,No,No,No,No,No,Yes,No,No,No,No,No,Yes,35.767344,-78.715890,,No,No,No,No,No,No,No,No,No,No,No,No,No,No,No,No,No,,,,Yes
2089354.249528557062149,772390.500030234456062,463,Lake Lynn Park - Lynn Rd Entrance,,,City of Raleigh,"7921 Ray Rd, Raleigh, NC","7921 Ray Rd, Raleigh, NC",http://www.raleighnc.gov/arts/content/PRecRecreation/Articles/LakeLynnCommunityCenter.html,919-870-2911,No,Yes,No,No,No,No,No,Yes,Yes,Yes,No,No,No,Yes,No,Yes,No,Yes,No,No,No,35.887996,-78.698045,,No,No,No,No,Yes,No,No,No,No,No,No,No,No,No,No,No,No,,,,Yes
2089603.504935547709465,778978.925173565745354,465,Lake Lynn Park - Ray Rd Entrance,,,City of Raleigh,"7921 Ray Rd, Raleigh, NC","7921 Ray Rd, Raleigh, NC",http://www.raleighnc.gov/arts/content/PRecRecreation/Articles/LakeLynnCommunityCenter.html,919-870-2911,No,Yes,No,No,No,No,No,Yes,Yes,Yes,No,No,No,Yes,No,Yes,No,Yes,No,No,No,35.887996,-78.698045,,No,No,No,No,Yes,No,No,No,No,No,No,No,No,No,No,No,No,,,,Yes
2090425.580719217658043,708375.488624811172485,466,Lake Wheeler Park,,,City of Raleigh,"6404 Lake Wheeler Rd, Raleigh, NC","6404 Lake Wheeler Rd, Raleigh, NC",http://www.raleighnc.gov/arts/content/PRecRecreation/Articles/LakeWheeler.html,919-662-5704,No,No,Yes,Yes,No,No,No,Yes,No,No,No,No,Yes,Yes,No,Yes,No,No,No,Yes,Yes,35.691756,-78.699471,,No,No,No,No,No,No,No,No,Yes,No,No,No,No,No,No,No,No,,,,Yes
2110818.134750306606293,740245.698506310582161,467,Lane Street Park,,,City of Raleigh,"920 E Lane St, Raleigh, NC","920 E Lane St, Raleigh, NC",http://www.raleighnc.gov/arts/content/PRecRecreation/Articles/LaneStreetPark.html,919-831-6640,No,No,No,No,No,No,No,No,No,No,No,Yes,No,Yes,No,No,No,No,No,No,No,35.783242,-78.626005,,No,No,No,No,No,No,No,No,No,No,No,No,No,No,No,No,No,,,,Yes
2103684.99973838031292,755901.069754555821419,470,Lassiter Mill Historical Park,,,City of Raleigh,"3300 Lassiter Falls Circle, Raleigh, NC",,https://www.raleighnc.gov/parks/content/Departments/Articles/ParksandRecreation.html,919-996-3285,,,,,,,,,Yes,,,,,,,,,,,,,,,,No,,,,,,,,,,,,,,,,No,,,,Yes
2100112.698812142014503,744942.565424889326096,471,Latta Property,,,City of Raleigh,"1001 Parker St, Raleigh, NC","1001 Parker St, Raleigh, NC",http://www.raleighnc.gov/arts_parks/,919-831-6640,No,No,No,No,No,No,No,No,No,No,No,No,No,No,No,No,No,No,No,No,No,35.796294,-78.663082,,No,No,No,No,No,No,No,No,No,No,No,No,No,No,No,No,No,,,,Yes
2088767.686069130897522,757371.143257975578308,473,Laurel Hills Park,,,City of Raleigh,"3808 Edwards Mill Rd, Raleigh, NC","3808 Edwards Mill Rd, Raleigh, NC",http://www.raleighnc.gov/arts/content/PRecRecreation/Articles/LaurelHillsMainPage.html,919-420-2383,No,Yes,No,No,No,No,No,No,No,Yes,No,Yes,Yes,Yes,No,Yes,No,No,No,No,Yes,35.829762,-78.697487,,No,No,No,No,No,No,No,No,No,No,No,No,No,No,No,No,No,,,,Yes
2084962.00995346903801,777476.494451388716698,481,Leesville Park,,,City of Raleigh,"8000 Hilburn Dr, Raleigh, NC","8000 Hilburn Dr, Raleigh, NC",http://www.raleighnc.gov/arts/content/PRecParks/Articles/PlaygroundLeesville.html,919-831-6640,No,No,No,No,No,No,No,No,No,No,No,No,No,Yes,No,No,No,No,No,No,Yes,35.884547,-78.715155,,No,No,No,No,No,No,No,No,No,No,No,No,No,Yes,No,No,No,,,,Yes
2104215.749989226460457,736571.562481895089149,484,Lenoir Street Park,,,City of Raleigh,"626 W Lenoir St, Raleigh, NC","626 W Lenoir St, Raleigh, NC",http://www.raleighnc.gov/arts/content/PRecParks/Articles/PlaygroundLenoirStreet.html,919-831-6640,No,No,No,No,No,No,No,No,No,No,No,Yes,No,Yes,No,No,No,No,No,No,No,35.773447,-78.648754,,No,No,No,No,No,No,No,No,No,No,No,No,No,No,No,No,No,,,,Yes
2062488.364612132310867,742167.469597145915031,485,Lexie Lane Park,,,Town of Cary,"301 N Dixon Street, Cary, NC","301 N Dixon Street, Cary, NC",http://www.townofcary.org/Departments/Parks__Recreation___Cultural_Resources/Parks_and_Greenways/Parks/Lexie_Lane_Park.htm,,No,Yes,No,No,No,No,No,No,No,No,No,Yes,No,No,No,No,No,No,No,No,Yes,35.788974,-78.789374,,No,No,No,No,No,No,No,No,No,No,No,No,No,No,No,No,No,,,,Yes
2060006.37745013833046,667214.178231060504913,488,Library Park,,,Town of Fuquay-Varina,"116 South Aiken Street, Fuquay-Varina, NC","116 South Aiken Street, Fuquay-Varina, NC",http://www.fuquay-varina.org/departments-and-services/parks-recreation-and-cultural-resources/parks/library-park.html,919-552-1430,No,No,No,No,No,No,No,No,No,No,No,No,Yes,Yes,No,No,No,No,No,No,No,35.583827,-78.797043,,No,No,No,No,No,No,No,No,No,No,No,No,No,No,No,No,No,,,,Yes
2068568.787818714976311,736797.458027482032776,492,Lion's Park,,,Town of Cary,"815 Tanglewood Drive, Cary, NC","815 Tanglewood Drive, Cary, NC",http://www.townofcary.org/Departments/Parks__Recreation___Cultural_Resources/Parks_and_Greenways/Parks/Lions_Park.htm,,No,Yes,No,No,No,No,No,No,No,No,No,No,No,Yes,No,No,No,No,No,No,Yes,35.773937,-78.769934,,No,No,No,No,No,No,No,No,No,No,No,No,No,No,No,No,No,,,,Yes
2114056.249993219971657,745738.312192976474762,494,Lions Park,,,City of Raleigh,"516 Dennis Ave, Raleigh, NC","516 Dennis Ave, Raleigh, NC",http://www.raleighnc.gov/arts/content/PRecRecreation/Articles/LionsPrkFrontPage.html,919-831-6995,No,Yes,No,No,No,No,No,No,No,Yes,No,Yes,Yes,Yes,No,Yes,No,Yes,No,No,No,35.796957,-78.613672,,No,No,No,No,No,No,Yes,No,No,No,No,Yes,No,No,No,No,No,,,,Yes
2191531.461512297391891,754720.686616644263268,497,Little River Park,,,Town of Zebulon,"1800 W Gannon Ave, Zebulon, NC",,https://www.townofzebulon.org/services/parks-and-recreation/parks-facilities,919-823-0432,,,,,,,,,,,,,,,,,,,,,,,,,No,,,,,,,,,,,,,,,,No,,,,Yes
2118910.250127717852592,744683.937333226203918,499,Lockwood Park,,,City of Raleigh,"1000 Crabtree Blvd, Raleigh, NC","1000 Crabtree Blvd, Raleigh, NC",http://www.raleighnc.gov/arts/content/PRecParks/Articles/PlaygroundLockwood.html,919-831-6640,No,No,No,No,No,No,No,No,No,No,No,No,No,Yes,No,No,No,No,No,No,No,35.795167,-78.598511,,No,No,No,No,No,No,No,No,No,No,No,No,No,No,No,No,No,,,,Yes
2103591.250253975391388,773985.750120565295219,503,Longstreet Park,,,City of Raleigh,"7334 Stuart Dr, Raleigh, NC","7334 Stuart Dr, Raleigh, NC",http://www.raleighnc.gov/arts/content/PRecParks/Articles/PlaygroundLongstreet.html,919-831-6640,No,No,No,No,No,No,No,No,No,No,No,No,No,Yes,No,No,No,No,No,No,No,35.875965,-78.650471,,No,No,No,No,No,No,No,No,No,No,No,No,No,No,No,No,No,,,,Yes
2115953.749807134270668,740993.750159814953804,504,Longview Park,,,City of Raleigh,"321 Bertie Dr, Raleigh, NC","321 Bertie Dr, Raleigh, NC",http://www.raleighnc.gov/arts_parks/,919-831-6640,No,No,No,No,No,No,No,No,No,No,No,No,No,No,Yes,No,No,No,No,No,No,35.786274,-78.608090,,No,No,No,No,No,No,No,No,Yes,No,No,No,No,No,No,No,No,,,,Yes
2094554.045559391379356,757230.554628387093544,507,Lt. Col. George F. Marshall Memorial Park,,,City of Raleigh,"3970 Blue Ridge Rd, Raleigh, NC","3970 Blue Ridge Rd, Raleigh, NC",http://www.raleighnc.gov/arts_parks/,919-831-6640,No,No,No,No,No,No,No,No,Yes,No,No,No,No,No,No,No,No,No,No,No,No,35.832712,-78.677362,,No,No,No,No,No,No,No,No,No,No,No,No,No,No,No,No,No,,,,Yes
2069116.957654133439064,729783.807684734463692,512,MacDonald Woods Park,,,Town of Cary,"1601 Seabrook Avenue, Cary, NC","1601 Seabrook Avenue, Cary, NC",http://www.townofcary.org/Departments/Parks__Recreation___Cultural_Resources/Parks_and_Greenways/Parks/MacDonald_Woods_Park.htm,,No,No,No,No,No,No,No,No,Yes,No,Yes,Yes,No,No,No,No,No,No,No,No,No,35.753298,-78.767124,,No,No,No,No,No,No,No,No,No,No,No,No,No,No,No,No,No,,,,Yes
2070491.316125884652138,726713.321371644735336,518,Marla Dorrel Park,,,Town of Cary,"111 Thurston Drive, Cary, NC","111 Thurston Drive, Cary, NC",http://www.kidstogethercary.org/,,No,No,No,No,No,No,No,No,Yes,No,Yes,Yes,Yes,Yes,No,No,No,No,No,No,Yes,35.745234,-78.763732,,No,No,No,No,No,No,No,No,No,No,No,No,No,No,No,No,No,,,,Yes
2127773.251758635044098,754791.736015230417252,521,Marsh Creek Park,,,City of Raleigh,"3016 New Hope Rd, Raleigh, NC","3016 New Hope Rd, Raleigh, NC",http://www.raleighnc.gov/arts/content/PRecRecreation/Articles/MarshCreekCommunityCenter.html,919-996-4920,No,Yes,No,No,No,No,No,No,No,Yes,Yes,No,Yes,Yes,No,Yes,No,No,No,No,Yes,35.822924,-78.564393,,No,No,No,No,No,No,No,Yes,No,Yes,No,No,No,No,No,No,No,,,,Yes
2095102.624842807650566,728798.062608972191811,529,Mary Belle Pate Park,,,City of Raleigh,"2640 Sierra Drive, Raleigh, NC",,https://www.raleighnc.gov/parks/content/ParksRec/Articles/Parks/MaryBellePate.html,919-996-3285,,,,,,,,,,,,Yes,,Yes,,,,,,,,,,,No,,,,,,,,,,,,,,,,No,,,,Yes
2065054.80797004699707,738812.643957734107971,530,Meeting Place Park,,,Town of Cary,"601 Kildaire Farm Road, Cary, NC","601 Kildaire Farm Road, Cary, NC",http://www.townofcary.org/recreation-enjoyment/parks-greenways-environment/parks/meeting-place-park,,No,No,No,No,No,No,No,No,No,No,No,No,No,No,No,No,No,No,No,Yes,No,,,,No,No,No,No,No,No,No,No,No,No,No,No,No,No,No,No,No,,,,Yes
2090808.4999008923769,743534.937662720680237,532,Method Community Park,,,City of Raleigh,"514 Method Rd, Raleigh, NC","514 Method Rd, Raleigh, NC",http://www.raleighnc.gov/arts/content/PRecRecreation/Articles/MethodCommunityCenter.html,919-831-6066,No,Yes,No,No,No,No,No,No,No,Yes,No,Yes,Yes,Yes,No,Yes,Yes,Yes,No,No,No,35.792815,-78.694513,,No,No,No,No,No,No,No,No,No,No,No,No,No,No,No,No,No,,,,Yes
2069987.017921879887581,696133.477347731590271,535,Middle Creek School Park,,,Town of Cary,"151 Middle Creek Park Avenue, Cary, NC","151 Middle Creek Park Avenue, Cary, NC",http://www.townofcary.org/Departments/Parks__Recreation___Cultural_Resources/Parks_and_Greenways/Parks/Middle_Creek_School_Park.htm,,No,Yes,No,No,Yes,No,No,No,No,No,Yes,Yes,Yes,Yes,No,Yes,No,Yes,No,Yes,Yes,35.665164,-78.765015,,No,No,No,No,No,No,No,No,No,No,No,No,No,No,No,No,No,,,,Yes
2137329.724443554878235,745596.455849394202232,539,Milburnie,,,City of Raleigh,"1101 Old Milburnie Rd, Raleigh, NC","1101 Old Milburnie Rd, Raleigh, NC",http://www.raleighnc.gov/arts_parks/,919-831-6640,No,No,No,Yes,No,No,No,Yes,Yes,No,No,No,No,No,No,No,No,No,No,No,No,35.798412,-78.538621,,No,No,No,No,No,No,No,No,No,No,No,No,No,No,No,No,No,,,,Yes
2136144.90725938975811,746937.14706563949585,540,Milburnie Park Neuse River Trail Access,Neuse River Trail Access,,City of Raleigh,"5428 Allen Dr, Raleigh, NC",,https://www.raleighnc.gov/parks/content/ParksRec/Articles/Greenways/NeuseRiverTrail.html,919-996-3285,,,,,,,,,Yes,,,,,,,,,,,Yes,,,,,No,,,,,,,,,,,,,,,,No,,,,Yes
2153178.962430059909821,794588.438245818018913,542,Mill Bridge Nature Park,,,Town of Rolesville,"425 Nature Park Drive, Wake Forest, NC","425 Nature Park Drive, Wake Forest, NC",http://rolesvillenc.gov/town-departments/parks-recreation/parks-facilities/,919.554.6582,No,No,No,No,No,No,No,No,Yes,No,No,No,No,No,No,No,No,No,No,Yes,No,,,,No,No,No,Yes,No,No,No,No,No,No,No,No,No,No,No,No,No,,,,Yes
2116264.904368549585342,770497.657031148672104,546,Millbrook Exchange Park,Anne Gordon Center for Active Adults,,City of Raleigh,"1815 Spring Forest Rd, Raleigh, NC","1815 Spring Forest Rd, Raleigh, NC",http://www.raleighnc.gov/arts/content/PRecRecreation/Articles/MillbrookExchangeCommunityCenter.html,919-996-4720,No,Yes,No,No,No,Yes,No,No,No,Yes,No,Yes,Yes,Yes,Yes,Yes,No,Yes,No,Yes,No,35.869465,-78.605255,,No,No,Yes,No,No,Yes,Yes,No,No,No,Yes,No,No,No,No,No,No,,,,Yes
2029692.694311216473579,750873.676594138145447,552,Mills Park,,,Town of Cary,"425 Mills Park Drive, Cary, NC","425 Mills Park Drive, Cary, NC",http://www.townofcary.org/recreation-enjoyment/parks-greenways-environment/parks/mills-school-park,,No,Yes,No,No,No,No,No,No,Yes,No,Yes,Yes,No,Yes,No,No,No,No,No,No,Yes,35.812644,-78.902605,,No,No,No,No,No,No,No,No,No,No,No,No,No,No,No,No,No,,,,Yes
2150094.529950633645058,743424.270889312028885,554,Mingo Creek Park,,,Town of Knightdale,"100 Parkside Commons Drive, Knightdale, NC","100 Parkside Commons Drive, Knightdale, NC",http://www.knightdalenc.gov/index.aspx?page=354,919-217-2230,No,No,No,No,No,No,No,No,Yes,No,No,Yes,No,No,No,No,No,No,No,Yes,No,,,,No,No,No,No,No,No,No,No,No,No,No,No,No,No,No,No,No,,,,Yes
2180923.570654630661011,790015.793847814202309,557,Mitchell Mill State Natural Area,,,State of North Carolina,"5129 Zebulon Rd, Zebulon, NC",,https://www.ncparks.gov/falls-lake-state-recreation-area/history,919-676-1027,,,,,,,,,,,,,,,,,,,,,,,,,No,,,,,,,,,,,,,,,,No,,,,Yes
2108188.322752714157104,737881.551331728696823,559,Moore Square,,,City of Raleigh,"201 South Blount St, Raleigh, NC","201 South Blount St, Raleigh, NC",http://www.raleighnc.gov/arts_parks/,919-832-1231,No,No,No,No,No,No,No,No,No,No,No,No,No,No,No,No,No,No,No,No,No,35.777402,-78.635800,,No,No,No,No,No,No,No,No,No,No,No,No,No,No,No,No,No,,,,Yes
2108798.144367724657059,743525.68768122792244,562,Mordecai Historic Park,Mordecai Historic Park,,City of Raleigh,"1 Mimosa St, Raleigh, NC","1 Mimosa St, Raleigh, NC",http://www.raleighnc.gov/arts/content/PRecRecreation/Articles/MordecaiHistoricPark2.html,919-857-4364,No,No,No,No,No,No,No,No,No,No,No,No,No,No,No,No,No,No,No,No,Yes,35.792683,-78.633102,,No,No,No,No,No,No,No,No,No,No,No,No,No,No,Yes,No,No,,,,Yes
2108218.532337963581085,744689.436994150280952,567,Mordecai Mini Park,,,City of Raleigh,"1122 North Blount St, Raleigh, NC","1122 North Blount St, Raleigh, NC",http://www.raleighnc.gov/arts/content/PRecParks/Articles/PlaygroundMordecai.html,919-831-6640,No,No,No,No,No,No,No,No,No,No,No,No,No,Yes,No,No,No,No,No,No,No,35.795778,-78.635210,,No,No,No,No,No,No,No,No,No,No,No,No,No,No,No,No,No,,,,Yes
2047180.413272723555565,750074.321565553545952,568,Morrisville Aquatics and Fitness Center,,,Town of Morrisville,"1301 Morrisville Pkwy, Morrisville, NC",,https://www.townofmorrisville.org/government/departments-services/parks-recreation-cultural-resources/morrisville-aquatics-and-fitness-center,919-463-6900,,,,,,,,,,,,,,,Yes,Yes,,Yes,,,Yes,,,,No,,,,,,,,,,,,,,,,No,,,,Yes
2045285.533532306551933,751806.086802810430527,570,Morrisville Community Park,,,Town of Morrisville,1520 Morrisville Parkway,"Morrisville, NC 27560",http://www.townofmorrisville.org/government/departments-services/parks-recreation-cultural-resources/parks-and-greenways/morrisville-community-park,919-463-7110,No,Yes,No,No,No,No,No,No,Yes,No,Yes,No,Yes,Yes,No,No,No,No,No,No,Yes,,,,No,No,No,No,No,No,No,No,No,No,No,No,No,No,No,No,No,,,,Yes
2105858.665010467171669,738394.940724894404411,579,Nash Square,,,City of Raleigh,"200 S McDowell St, Raleigh, NC","200 S McDowell St, Raleigh, NC",http://www.raleighnc.gov/arts_parks/,919-832-1231,No,No,No,No,No,No,No,No,No,No,No,No,No,No,No,No,No,No,No,No,No,35.777579,-78.642702,,No,No,No,No,No,No,No,No,No,No,No,No,No,No,No,No,No,,,,Yes
2021918.690502300858498,752069.656813725829124,584,New Hope Church Road Trailhead Park,Access to American Tobacco Trail,,Town of Cary,"2575 New Hope Church Road, Cary, NC","2575 New Hope Church Road, Cary, NC",http://www.townofcary.org/recreation-enjoyment/parks-greenways-environment/parks/new-hope-church-road-trailhead-park,,No,No,No,No,No,No,No,No,Yes,No,Yes,No,Yes,No,No,No,No,No,No,No,Yes,,,,No,No,No,No,No,No,No,No,No,No,No,No,No,No,No,No,No,,,,Yes
2062493.124773219227791,753692.187689393758774,591,North Cary Park,,,Town of Cary,"1100 Norwell Boulevard, Cary, NC","1100 Norwell Boulevard, Cary, NC",http://www.townofcary.org/recreation-enjoyment/parks-greenways-environment/parks/north-cary-park,,No,No,No,No,No,No,No,No,Yes,No,No,Yes,Yes,Yes,No,No,No,No,No,Yes,Yes,35.821390,-78.787315,"Sand Volleyball Courts, Climbing Boulders",No,No,No,No,No,No,No,No,Yes,No,No,No,No,No,No,No,No,,,,Yes
2117892.440483555197716,712269.794156387448311,594,North Garner Dog Park,,,Town of Garner,"221 E Garner Rd, Garner, NC","221 E Garner Rd, Garner, NC",http://www.garnernc.gov/departments/parks-recreation-and-cultural-resources/parks/north-garner-dog-park,,No,No,No,No,No,Yes,No,No,No,No,No,No,No,No,No,No,No,No,No,No,No,,,,No,No,No,No,No,No,No,No,No,No,No,No,No,No,No,No,No,,,,Yes
2101912.447509214282036,760792.467780143022537,597,North Hills Park,,,City of Raleigh,"100 Chowan Cir, Raleigh, NC","100 Chowan Cir, Raleigh, NC",http://www.raleighnc.gov/arts/content/PRecRecreation/Articles/NorthHillsPark.html,919-870-2880,No,Yes,No,No,No,No,No,No,Yes,No,No,No,Yes,Yes,No,No,No,Yes,No,No,Yes,35.838586,-78.658194,,No,No,No,No,No,No,No,No,No,No,No,No,No,No,No,No,No,,,,Yes
2037501.339126974344254,761284.025852143764496,600,Northwest Park,,,Town of Morrisville,998 Parkside Valley Drive,"Morrisville, NC 27560",http://www.townofmorrisville.org/government/departments-services/parks-recreation-cultural-resources/parks-and-greenways/northwest-park,919-463-7110,No,No,No,No,No,No,No,No,No,No,No,No,Yes,Yes,No,No,No,No,No,Yes,Yes,,,,No,No,No,No,No,No,No,No,No,No,No,No,No,No,No,No,No,,,,Yes
2109048.499838143587112,741908.060339063405991,602,Oakwood Commons Park,,,City of Raleigh,"535 N East St, Raleigh, NC","535 N East St, Raleigh, NC",http://www.raleighnc.gov/arts/content/PRecParks/Articles/PlaygroundOakwoodCommons.html,919-831-6640,No,No,No,No,No,No,No,No,No,No,No,No,No,Yes,No,No,No,No,No,No,No,35.787851,-78.632133,,No,No,No,No,No,No,No,No,No,No,No,No,No,No,No,No,No,,,,Yes
2111072.555173218250275,743035.888463973999023,604,Oakwood Park,,,City of Raleigh,"910 Brookside Dr, Raleigh, NC","910 Brookside Dr, Raleigh, NC",http://www.raleighnc.gov/arts/content/PRecRecreation/Articles/OakwoodPark.html,919-831-6995,No,Yes,No,No,No,Yes,No,No,No,No,No,Yes,Yes,No,No,No,No,No,No,No,Yes,35.791088,-78.624044,,No,No,No,No,No,No,Yes,No,No,No,No,No,No,No,No,No,No,,,,Yes
2064647.406881973147392,760246.527270972728729,608,Old Reedy Creek Road Trailhead,,,Town of Cary,"2139 Old Reedy Creek Road, Cary, NC","2139 Old Reedy Creek Road, Cary, NC",http://www.townofcary.org/recreation-enjoyment/parks-greenways-environment/parks/old-reedy-creek-road-trailhead,,No,No,No,No,No,No,No,No,Yes,No,No,No,Yes,No,No,No,No,No,No,No,Yes,,,Bike Repair Station,No,No,No,No,No,No,No,No,No,No,No,No,No,No,No,No,No,,,,Yes
2104276.963121384382248,769807.447125479578972,610,Optimist Park,,,City of Raleigh,"5900 Whittier Dr, Raleigh, NC","5900 Whittier Dr, Raleigh, NC",http://www.raleighnc.gov/arts/content/PRecRecreation/Articles/OptimistCommunityCenter.html,919-870-2880,No,Yes,No,No,No,No,No,No,Yes,Yes,No,No,No,Yes,Yes,Yes,No,Yes,No,Yes,Yes,35.863493,-78.646732,,No,No,No,No,No,No,No,No,No,No,No,No,No,No,No,No,No,,,,Yes
2065021.327393963932991,742076.750946566462517,613,Page-Walker Arts & History Center,,,Town of Cary,"316 North Academy Street, Cary, NC","316 North Academy Street, Cary, NC",http://www.townofcary.org/Departments/Parks__Recreation___Cultural_Resources/Facilities/Cultural_Arts_Centers/Page-Walker_Arts___History_Center.htm,,Yes,No,No,No,No,No,No,No,No,No,No,No,No,Yes,No,No,No,No,No,No,No,35.789595,-78.780620,,No,No,No,No,No,No,No,No,No,No,No,No,No,No,No,No,No,,,,Yes
2050932.318826630711555,690022.093901231884956,619,Parrish Womble Park,,,Town of Holly Springs,"1201 Grigsby Ave., Holly Springs, NC","1201 Grigsby Ave., Holly Springs, NC",http://www.hollyspringsnc.us/index.aspx?NID=332,(919) 557-9600,No,Yes,No,No,No,No,No,No,No,No,Yes,No,Yes,Yes,No,No,No,No,No,No,Yes,35.643362,-78.826874,,No,No,No,No,No,No,No,No,No,No,No,No,No,No,No,No,No,,,,Yes
2102431.36084146797657,725655.183724150061607,621,Peach Road Park,,,City of Raleigh,"911 Ileagnes Rd, Raleigh, NC","911 Ileagnes Rd, Raleigh, NC",http://www.raleighnc.gov/arts/content/PRecRecreation/Articles/PeachRoadMainPage.html,919-807-8545,No,No,No,No,No,No,No,No,No,No,Yes,Yes,No,Yes,No,Yes,Yes,No,No,No,No,35.742242,-78.654970,,No,No,No,No,No,Yes,No,No,No,No,No,No,No,No,No,No,No,,,,Yes
2060177.210441797971725,715330.173206225037575,624,Penny Road Elementary School Park,,,Town of Cary,"10900 Penny Rd, Cary, NC","10900 Penny Rd, Cary, NC",http://www.wcpss.net/pennyroades,(919) 387-2136,,Yes,,,,,,,,,Yes,,Yes,Yes,,,,,Yes,Yes,,,,,No,,,,,,,,,,,,,,,,No,,,,Yes
2133560.362559720873833,808201.253867894411087,625,Plummer Park,,,Town of Wake Forest,"965 Jones Wynd, Wake Forest, NC","965 Jones Wynd, Wake Forest, NC",http://www.wakeforestnc.gov/plummer-park.aspx,919-435-9560,No,No,No,No,No,No,No,No,No,No,No,No,Yes,Yes,No,No,No,No,No,No,No,35.969293,-78.548740,,No,No,No,No,No,No,No,No,No,No,No,No,No,No,No,No,No,,,,Yes
2094941.374837219715118,744249.56254580616951,626,Pollock Place Park,,,City of Raleigh,"3301 Pollock Pl, Raleigh, NC","3301 Pollock Pl, Raleigh, NC",http://www.raleighnc.gov/arts/content/PRecParks/Articles/PlaygroundPollockPlace.html,919-831-6640,No,No,No,No,No,No,No,No,No,No,No,No,No,Yes,No,No,No,No,No,No,No,35.794681,-78.679979,,No,No,No,No,No,No,No,No,No,No,No,No,No,No,No,No,No,,,,Yes
2138335.452418968081474,729864.331473812460899,631,Poole Road Canoe Launch,,,City of Raleigh,"6451 Poole Rd, Raleigh, NC","6451 Poole Rd, Raleigh, NC",http://www.raleighnc.gov/arts_parks/,919-831-6610,No,No,No,Yes,No,No,No,No,Yes,No,No,No,No,No,No,No,No,No,No,No,No,35.754822,-78.532799,,No,No,No,No,No,No,No,No,No,No,No,No,No,No,No,No,No,,,,Yes
2107286.059465393424034,736718.62747648358345,632,Pope House,,,City of Raleigh,"511 S Wilmington St, Raleigh, NC","511 S Wilmington St, Raleigh, NC",http://www.raleighnc.gov/arts_parks/,919-996-2220,No,No,No,No,No,No,No,No,No,No,No,No,No,No,No,No,No,No,No,No,No,35.773705,-78.638212,,No,No,No,No,No,No,No,No,No,No,No,No,No,No,Yes,No,No,,,,Yes
2084996.213953301310539,738312.267661899328232,636,Powell Drive Park,,,City of Raleigh,"740 Powell Dr, Raleigh, NC","740 Powell Dr, Raleigh, NC",http://www.raleighnc.gov/arts/content/PRecRecreation/Articles/PowellDriveParkAndCenter.html,919-831-6640,No,No,No,No,No,No,No,No,No,No,No,Yes,Yes,Yes,No,Yes,Yes,Yes,No,No,No,35.778923,-78.714172,,No,No,No,No,No,No,No,No,No,No,No,No,No,No,No,No,No,,,,Yes
2049502.304626300930977,742735.362818315625191,637,Preston Soccer Fields,,,Town of Cary,"801 High House Road, Cary, NC","801 High House Road, Cary, NC",http://games.townofcarync.gov/ballfields/displaystatus.php,,No,No,No,No,No,No,No,No,Yes,No,No,No,No,No,No,No,No,No,No,Yes,No,35.790665,-78.833094,,No,No,No,No,No,No,No,No,No,No,No,No,No,No,No,No,No,,,,Yes
2099610.071208477020264,740621.955299720168114,643,Pullen Arts Center,Pullen Park,,City of Raleigh,"105 Pullen Rd, Raleigh, NC","105 Pullen Rd, Raleigh, NC",http://www.raleighnc.gov/arts/content/PRecRecreation/Articles/PullenArtsCenter.html,919-996-6126,Yes,Yes,No,No,No,No,No,No,No,No,No,No,No,No,No,No,No,No,No,Yes,No,35.784329,-78.663089,,No,No,No,No,No,No,No,No,No,No,No,No,No,No,No,No,No,,,,Yes
2100361.108092218637466,738855.750826895236969,645,Pullen Park,Pullen Amusement Center,Pullen Aquatic Center,City of Raleigh,"410 Park Ave, Raleigh, NC","410 Park Ave, Raleigh, NC",http://www.raleighnc.gov/arts/content/PRecRecreation/Articles/PullenPark.html,919-996-6468,No,No,Yes,No,No,No,No,No,No,No,Yes,No,Yes,Yes,Yes,Yes,No,Yes,No,Yes,Yes,35.780908,-78.663930,,Yes,Yes,No,No,No,No,No,No,No,No,No,No,Yes,No,No,No,No,,,,Yes
2111715.669700637459755,735020.873654142022133,652,Quarry Street Park,,,City of Raleigh,"731 Quarry St, Raleigh, NC","731 Quarry St, Raleigh, NC",http://www.raleighnc.gov/arts/content/PRecParks/Articles/PlaygroundQuarryStreet.html,919-831-6640,No,No,No,No,No,No,No,No,No,No,No,Yes,No,Yes,No,No,No,No,No,No,No,35.768966,-78.623228,,No,No,No,No,No,No,No,No,No,No,No,No,No,No,No,No,No,,,,Yes
2068152.836222797632217,737875.222604230046272,654,R.S. Dunham Park,,,Town of Cary,"519 Walnut Street, Cary, NC","519 Walnut Street, Cary, NC",http://www.townofcary.org/Departments/Parks__Recreation___Cultural_Resources/Parks_and_Greenways/Parks/R__S__Dunham_Park.htm,,No,No,No,No,No,No,No,No,No,No,No,Yes,No,No,No,No,No,Yes,No,No,Yes,35.777970,-78.769986,,No,No,No,No,No,No,No,No,No,No,No,No,No,No,No,No,No,,,,Yes
2106930.389901131391525,738152.858859971165657,655,Raleigh City Museum,,,City of Raleigh,"220 Fayetteville St, Raleigh, NC","220 Fayetteville St, Raleigh, NC",http://www.raleighnc.gov/arts/content/PRecRecreation/Articles/HRMCityMuseum.html,919-996-2220,No,No,No,No,No,No,No,No,No,No,No,No,No,No,No,No,No,No,No,No,No,35.777643,-78.639497,,No,No,No,No,No,No,No,No,No,No,No,No,No,No,Yes,No,No,,,,Yes
2117182.499974310398102,709958.187559142708778,657,Rand Mill Park,,,Town of Garner,"508 Rand Mill Road, Garner NC, 27529","508 Rand Mill Road, Garner NC, 27529",http://www.garnernc.gov/Departments/Parks%20and%20Recreation/Parks.aspx?ID=23,919-773-4442,No,Yes,No,No,No,No,No,No,No,No,No,Yes,Yes,Yes,No,No,No,No,No,No,Yes,35.700681,-78.605121,,No,No,No,No,No,No,No,No,No,No,No,No,No,No,No,No,No,,,,Yes
2073274.392580717802048,673285.686757311224937,658,Ransdell Soccer Fields,,,Town of Fuquay-Varina,"1501 Ideal Lane, Fuquay-Varina, NC","1501 Ideal Lane, Fuquay-Varina, NC",http://www.fuquay-varina.org/departments-and-services/parks-recreation-and-cultural-resources/parks/ransdell-soccer-fields.html,919-552-1430,No,No,No,No,No,No,No,No,No,No,Yes,No,No,No,No,No,No,No,No,No,No,35.600683,-78.753437,,No,No,No,No,No,No,No,No,No,No,No,No,No,No,No,No,No,,,,Yes
2093399.200100049376488,751004.149758398532867,659,Ridge Road Park,,,City of Raleigh,"1709 Ridge Rd, Raleigh, NC","1709 Ridge Rd, Raleigh, NC",http://www.raleighnc.gov/arts_parks/,919-831-6640,No,No,No,No,No,No,No,No,No,No,No,No,No,No,Yes,No,No,No,No,No,No,35.813836,-78.685092,,No,No,No,No,No,No,No,No,No,No,No,No,No,No,No,No,No,,,,Yes
2106559.303701058030128,747124.575496554374695,660,Roanoke Park,,,City of Raleigh,"1500 Cherokee Dr, Raleigh, NC","1500 Cherokee Dr, Raleigh, NC",http://www.raleighnc.gov/arts/content/PRecRecreation/Articles/RoanokePark.html,919-831-6640,No,No,No,No,No,No,No,No,No,No,No,Yes,Yes,Yes,No,No,No,No,No,No,No,35.801684,-78.639935,,No,No,No,No,No,No,No,No,Yes,No,No,No,No,No,No,No,No,,,,Yes
2061866.374714389443398,746653.437659308314323,664,Robert V. Godbold Park,Sk-8 Cary Skate Park,Cary Dog Park at Goldbold Park,Town of Cary,"2050 NW Maynard Road, Cary, NC","2050 NW Maynard Road, Cary, NC",http://www.townofcary.org/recreation-enjoyment/parks-greenways-environment/parks/robert-v-godbold-park,,No,No,No,No,No,Yes,No,No,Yes,No,No,Yes,No,Yes,No,No,No,Yes,No,Yes,Yes,35.800560,-78.790735,Concession at Sk-8 Cary Skate Park,No,No,No,No,No,No,No,No,No,Yes,No,No,No,No,No,No,No,,,,Yes
2113102.365746140480042,737632.401895642280579,667,Roberts Park,,,City of Raleigh,"1300 E Martin St, Raleigh, NC","1300 E Martin St, Raleigh, NC",http://www.raleighnc.gov/arts/content/PRecRecreation/Articles/RobertsCommunityCenterMain.html,919-831-6830,No,Yes,No,No,No,No,No,No,No,Yes,No,Yes,Yes,Yes,No,Yes,Yes,Yes,No,No,No,35.775488,-78.618247,,No,No,No,No,No,No,No,No,No,No,No,No,No,No,No,No,No,,,,Yes
2174219.000074297189713,752764.68757589161396,672,Robertson Millpond Preserve,,,Wake County,"6333 Robertson Pond Road, Wendell, NC 27591",,http://www.wakegov.com/parks/robertsonmillpond/Pages/default.aspx,NA,No,No,Yes,Yes,No,No,No,Yes,No,No,No,No,No,No,No,No,No,No,No,No,No,,,,No,No,No,No,No,No,No,No,No,No,No,No,No,No,No,No,No,No,No,No,Yes
2045260.974854379892349,723312.491559147834778,673,Rodgers Family Skate Plaza at Trackside,Hunter Street Park,,Town of Apex,1290 Ambergate Station,,https://www.apexnc.org/485/Trackside-Skate-Plaza,919-249-3402,No,No,No,No,No,No,No,No,Yes,No,No,No,No,No,No,No,No,No,No,No,Yes,35.735807,-78.848187,,No,No,No,No,No,No,No,No,No,Yes,No,No,No,No,No,No,No,No,No,No,Yes
2158841.37334930896759,788923.363617971539497,680,Rolesville Community School Park,,,Town of Rolesville,"121 Redford Place Drive, Rolesville, NC","121 Redford Place Drive, Rolesville, NC",http://rolesvillenc.gov/town-departments/parks-recreation/parks-facilities/,919.554.6582,No,Yes,No,No,No,No,No,No,No,No,No,No,Yes,No,No,No,No,No,No,No,No,,,,No,No,No,No,No,No,No,No,No,No,No,No,No,No,No,No,No,,,,Yes
2159680.037354379892349,790604.437027484178543,686,Rolesville Main Street Park,,,Town of Rolesville,"200 South Main St, Rolesville, NC","200 South Main St, Rolesville, NC",http://rolesvillenc.gov/town-departments/parks-recreation/parks-facilities/,919.554.6582,No,No,No,No,No,No,No,No,Yes,No,Yes,No,Yes,Yes,No,No,No,No,No,Yes,No,,,,No,No,No,No,No,No,No,No,No,No,No,No,No,No,No,No,No,,,,Yes
2098284.087639972567558,742827.153317138552666,692,Rose Garden & Raleigh Little Theatre,,,City of Raleigh,"301 Pogue St, Raleigh, NC","301 Pogue St, Raleigh, NC",http://www.raleighlittletheatre.org/,919-996-6468,No,No,No,No,No,No,No,No,No,No,No,No,Yes,No,No,No,No,No,No,No,No,35.791600,-78.668782,,No,No,No,Yes,No,No,No,No,No,No,No,No,No,No,No,No,No,,,,Yes
2064011.701788559556007,736409.779997065663338,693,Rose Street Park,,,Town of Cary,"110 Rose Street, Cary, NC","110 Rose Street, Cary, NC",http://www.townofcary.org/Departments/Parks__Recreation___Cultural_Resources/Parks_and_Greenways/Parks/Rose_Street_Park.htm,,No,No,No,No,No,No,No,No,No,No,No,Yes,No,Yes,No,No,No,No,No,No,No,35.773311,-78.784299,,No,No,No,No,No,No,No,No,No,No,No,No,No,No,No,No,No,,,,Yes
2106163.250031217932701,754035.125323727726936,696,Rothgeb Park,,,City of Raleigh,"2739 Rothgeb Dr, Raleigh, NC","2739 Rothgeb Dr, Raleigh, NC",http://www.raleighnc.gov/arts_parks/,919-831-6640,No,No,No,No,No,No,No,No,Yes,No,No,No,No,No,No,No,No,No,No,No,No,35.821660,-78.642014,,No,No,No,No,No,No,No,No,No,No,No,No,No,No,No,No,No,,,,Yes
2051479.433546051383018,754659.339954555034637,699,Ruritan Park,,,Town of Morrisville,"212 Page St, Morrisville, NC 27560",,https://www.townofmorrisville.org/government/departments-services/parks-recreation-cultural-resources/parks-and-greenways,919-463-7110,,,,,,,,,,,,,,,,,,,,,,,,,No,,,,,,,,,,,,,,,,No,,,,Yes
2044684.480928629636765,729639.787631556391716,700,Salem Pond Park,,,Town of Apex,"6112 Old Jenks Rd, Apex, NC","6112 Old Jenks Rd, Apex, NC",https://www.apexnc.org/369/Parks-Recreation-Projects,919-249-3402,No,No,No,No,No,No,No,Yes,Yes,No,Yes,No,Yes,Yes,No,No,No,No,No,Yes,No,35.754866,-78.849013,,No,No,No,No,No,No,No,No,No,No,No,No,No,No,No,No,No,,,,Yes
2114596.23283714056015,725791.995786473155022,707,Sanderford Road Park,,,City of Raleigh,"2623 Sanderford Rd, Raleigh, NC","2623 Sanderford Rd, Raleigh, NC",http://www.raleighnc.gov/arts/content/PRecRecreation/Articles/SanderfordRoad.html,919-831-1898,No,Yes,No,No,No,No,No,No,No,No,No,Yes,Yes,Yes,No,Yes,Yes,Yes,No,Yes,No,35.743084,-78.612295,,No,No,No,No,No,No,Yes,No,No,No,No,No,No,No,No,No,No,,,,Yes
2050935.828334048390388,719888.503984555602074,708,Seagroves Farm Park,,,Town of Apex,"201 Parkfield Dr., Apex, NC","201 Parkfield Dr., Apex, NC",https://www.apexnc.org/796/Neighborhood-Parks,919-249-3402,No,No,No,No,No,No,No,Yes,No,No,Yes,No,Yes,Yes,No,No,No,No,No,Yes,Yes,35.727813,-78.828484,,No,No,No,No,No,No,No,No,No,No,No,No,No,No,No,No,No,,,,Yes
2034663.532466635107994,745287.332451894879341,717,Sears Farm Road Park,,,Town of Cary,"5077 Sears Farm Road, Cary, NC","5077 Sears Farm Road, Cary, NC",http://www.townofcary.org/recreation-enjoyment/parks-greenways-environment/parks/sears-farm-road-park,,No,No,No,No,No,No,No,No,Yes,No,Yes,Yes,Yes,Yes,No,No,No,No,No,Yes,Yes,35.799060,-78.880551,,No,No,No,No,No,No,No,No,No,No,No,No,No,No,No,No,No,,,,Yes
2098926.434124305844307,767304.541698232293129,721,Sertoma Arts Center,,,City of Raleigh,"1400 W Millbrook Rd, Raleigh, NC","1400 W Millbrook Rd, Raleigh, NC",http://www.raleighnc.gov/arts/content/PRecRecreation/Articles/SertomaArtsCenter.html,919-420-2329,Yes,No,No,No,No,No,No,Yes,Yes,No,No,Yes,No,Yes,No,No,No,No,No,No,Yes,35.858768,-78.664469,,No,No,No,No,No,No,No,No,No,No,No,No,No,No,No,No,No,,,,Yes
2100071.522057220339775,766791.085047975182533,728,Shelley Lake Park,,,City of Raleigh,"1400 W Millbrook Rd, Raleigh, NC","1400 W Millbrook Rd, Raleigh, NC",http://www.raleighnc.gov/arts/content/PRecRecreation/Articles/ShelleyLake.html,919-420-2329,No,No,No,No,No,No,No,Yes,Yes,No,Yes,No,No,No,No,No,No,No,No,No,Yes,35.856301,-78.660979,,No,No,No,No,No,No,No,No,No,No,No,No,No,No,No,No,No,,,,Yes
2046583.819977715611458,764670.654905647039413,729,Shiloh Park/Luther Green Center,,,Town of Morrisville,922 Church Street,"Morrisville, NC 27560",http://www.townofmorrisville.org/government/departments-services/parks-recreation-cultural-resources/parks-and-greenways/shiloh-park-luther-green-center,919-463-7110,No,Yes,No,No,No,No,No,No,No,No,Yes,Yes,Yes,Yes,No,Yes,Yes,No,No,Yes,Yes,,,Tobacco Barn and batting cage,No,No,No,No,No,No,No,No,No,No,No,No,No,No,Yes,No,No,,,,Yes
2147614.098231717944145,803182.008657068014145,734,Smith Creek Soccer Center,,,Town of Wake Forest,"690 Heritage Lake Rd, Wake Forest, NC","690 Heritage Lake Rd, Wake Forest, NC",http://www.wakeforestnc.gov/smith-creek-soccer-center.aspx,919-435-9560,No,No,No,No,No,No,No,No,Yes,No,Yes,No,Yes,Yes,No,No,No,No,No,No,No,35.955823,-78.501277,,No,No,No,No,No,No,No,No,No,No,No,No,No,No,No,No,No,,,,Yes
2111377.252070382237434,707540.440754219889641,737,South Garner Park,,,Town of Garner,"1210 Poole Drive, Garner NC, 27529","1210 Poole Drive, Garner NC, 27529",http://www.garnernc.gov/Departments/Parks%20and%20Recreation/Parks.aspx?ID=24,919-773-4443,No,Yes,No,No,No,No,No,No,No,No,Yes,No,No,Yes,No,No,No,Yes,No,Yes,Yes,35.692472,-78.625674,,No,No,No,No,No,No,No,No,No,No,No,No,No,No,No,No,No,,,,Yes
2059264.896977722644806,663335.737169057130814,743,South Park,,,Town of Fuquay-Varina,"900 South Main Street, Fuquay-Varina, NC","900 South Main Street, Fuquay-Varina, NC",http://www.fuquay-varina.org/departments-and-services/parks-recreation-and-cultural-resources/parks/south-park.html,919-552-1430,No,Yes,No,No,No,No,No,No,Yes,Yes,Yes,No,Yes,Yes,No,Yes,No,No,Yes,Yes,Yes,35.571857,-78.802875,Splash Pad,No,No,No,No,No,No,No,No,No,No,No,No,No,No,No,No,No,,,,Yes
2116231.053714469075203,729967.463485389947891,744,Southgate Park,Sgt. Courtney T. Johnson Community Center,,City of Raleigh,"1801 Proctor Rd, Raleigh, NC","1801 Proctor Rd, Raleigh, NC",http://www.raleighnc.gov/arts/content/PRecRecreation/Articles/SgtCourtneyTJohnsonCommunityCenter.html,919-831-6719,No,Yes,No,No,No,No,No,No,No,No,No,Yes,Yes,Yes,No,Yes,Yes,No,No,No,No,35.755112,-78.607825,,No,No,No,No,No,No,No,No,Yes,No,No,No,No,No,No,No,No,,,,Yes
2127006.25033988058567,767499.999968722462654,749,Spring Forest Road Park,,,City of Raleigh,"4203 Spring Forest Rd, Raleigh, NC","4203 Spring Forest Rd, Raleigh, NC",http://www.raleighnc.gov/arts/content/PRecRecreation/Articles/SpringForestRoadPark.html,919-872-4140,No,Yes,No,No,No,No,No,No,No,No,No,No,Yes,Yes,No,No,No,Yes,No,Yes,No,35.858878,-78.568833,,No,No,No,No,No,No,No,No,No,No,No,No,No,No,No,No,No,,,,Yes
2093192.749725550413132,738281.437342971563339,750,Spring Park,,,City of Raleigh,"1422 Collegeview Ave, Raleigh, NC","1422 Collegeview Ave, Raleigh, NC",http://www.raleighnc.gov/arts/content/PRecRecreation/Articles/SpringPark.html,919-831-6640,No,No,No,No,No,No,No,No,No,No,No,Yes,Yes,Yes,No,No,No,No,No,No,No,35.778301,-78.686080,,No,No,No,No,No,No,No,No,No,No,No,No,No,No,No,No,No,,,,Yes
2084575.399178132414818,785482.979750722646713,752,Strickland Road Neighborhood Park,,,City of Raleigh,"12804 Strickland Rd, Raleigh, NC","12804 Strickland Rd, Raleigh, NC",http://www.raleighnc.gov/arts/content/PRecParks/Articles/PlaygroundStricklandRoad.html,919-831-6640,No,No,No,No,No,No,No,No,No,No,No,No,No,Yes,No,No,No,No,No,No,No,35.910070,-78.714739,,No,No,No,No,No,No,No,No,No,No,No,No,No,No,No,No,No,,,,Yes
2044804.709690809249878,717136.216182067990303,753,Sue Helton Park,,,Town of Apex,"201 Matney Ln., Apex, NC","703 Matney Ln., Apex, NC",http://www.apexnc.org/services/parks-recreation-cultural-resources/park-facilities/sue-helton-park,919-249-3402,No,No,No,No,No,No,No,No,No,No,No,No,Yes,Yes,No,No,No,No,No,No,No,35.720307,-78.849308,,No,No,No,No,No,No,No,No,No,No,No,No,No,No,No,No,No,,,,Yes
2079207.877432882785797,725971.865177392959595,755,Swift Creek Elementary School Park,,,Wake County Public School System,"5601 Tryon Rd, Raleigh, NC","5601 Tryon Rd, Raleigh, NC",http://www.wcpss.net/swiftcreekes,(919) 233-4320,,,,,,,,,,,Yes,Yes,,Yes,,,,Yes,,,,,,,No,,,,,,,,,,,,,,,,No,,,,Yes
2060902.663715302944183,720659.980788066983223,763,Symphony Lake Park,,,Town of Cary,,,http://www.townofcary.org/recreation-enjoyment/parks-greenways-environment/greenways/symphony-lake-greenway,,No,No,No,No,No,No,No,No,Yes,No,No,No,No,No,No,No,No,No,No,Yes,No,,,,No,No,No,No,No,No,No,No,No,No,No,No,No,No,No,No,No,,,,Yes
2111755.182416886091232,739723.621138393878937,764,Tarboro Road Park,Saint Monica Teen Center,,City of Raleigh,"121 N Tarboro St, Raleigh, NC","121 N Tarboro St, Raleigh, NC",http://www.raleighnc.gov/arts/content/PRecRecreation/Articles/TarboroRdMainPage.html,919-831-6505,No,No,No,No,No,No,No,No,No,Yes,No,No,Yes,Yes,No,Yes,Yes,Yes,No,No,No,35.781204,-78.622861,,No,No,No,No,No,No,No,No,No,No,No,No,No,No,No,Yes,No,,,,Yes
2146755.276458546519279,813179.509659394621849,767,Taylor Street Park,,,Town of Wake Forest,"416 N Taylor St, Wake Forest, NC","416 N Taylor St, Wake Forest, NC",http://www.wakeforestnc.gov/residents-parksrecreation_facilities_taylor.aspx,919-435-9560,No,No,No,No,No,No,No,No,No,No,No,No,Yes,Yes,No,Yes,No,No,No,No,Yes,35.982694,-78.504344,Park has a Sprayground,No,No,No,No,No,No,No,No,No,No,No,No,No,No,No,No,No,,,,Yes
2050861.171659216284752,690083.805720061063766,771,The PIT Soccer Field,,,Town of Holly Springs,"301 Stinson Ave., Holly Springs, NC","301 Stinson Ave., Holly Springs, NC",http://www.hollyspringsnc.us/index.aspx?NID=312,(919) 557-9601,No,No,No,No,No,No,No,No,No,No,Yes,No,No,No,No,Yes,No,No,No,No,No,35.646735,-78.829266,,No,No,No,No,No,No,No,No,No,No,No,No,No,No,No,No,No,,,,Yes
2100361.108092218637466,738855.750826895236969,776,Theatre in the Park (Pullen Park),,,City of Raleigh,"107 Pullen Road, Raleigh, NC","107 Pullen Road, Raleigh, NC",http://www.theatreinthepark.com/,919-831-6936,No,No,No,No,No,No,No,No,No,No,No,No,No,No,No,No,No,No,No,No,No,,,,No,No,No,Yes,No,No,No,No,No,No,No,No,No,No,No,No,No,,,,Yes
2031395.880209296941757,746307.069913730025291,784,Thomas E. Brooks Park,Thomas Brooks Athletic Complex,,Town of Cary,"9008 Green Level Church Road, Cary, NC","9008 Green Level Church Road, Cary, NC",http://www.townofcary.org/recreation-enjoyment/parks-greenways-environment/parks/thomas-brooks-park,,No,No,No,No,No,No,No,No,Yes,No,No,Yes,Yes,Yes,No,No,No,No,No,Yes,Yes,35.795202,-78.900379,,No,No,No,No,No,No,No,No,No,No,No,No,No,No,No,No,No,,,,Yes
2084166.022372215986252,735172.14205239713192,787,Thomas G. Crowder Woodland Center,,,City of Raleigh,"5611 Jaguar Park Dr, Raleigh, NC","5611 Jaguar Park Dr, Raleigh, NC",https://www.raleighnc.gov/parks/content/ParksRec/Articles/Parks/TGCWoodlandCenter.html,919-996-3141,No,No,No,No,No,No,No,No,Yes,No,No,No,No,No,No,No,No,No,No,Yes,No,,,,No,No,No,No,No,No,No,No,No,No,No,No,No,No,No,No,No,,,,Yes
2108261.99977071583271,703258.687506720423698,788,Thompson Road Park,,,Town of Garner,"550 Thompson Road, Garner NC, 27529","550 Thompson Road, Garner NC, 27529",http://www.garnernc.gov/Departments/Parks%20and%20Recreation/Parks.aspx?ID=6,919-773-4444,No,No,No,No,No,No,No,No,No,No,Yes,No,No,No,No,No,No,No,No,No,No,35.682316,-78.633112,,No,No,No,No,No,No,No,No,No,No,No,No,No,No,No,No,No,,,,Yes
2049063.853403463959694,698658.244935974478722,789,Ting Park,,,Town of Holly Springs,1151 N. Main St.,"Holly Springs, NC 27540",https://www.hollyspringsnc.us/607/Ting-Park,(919) 746-8300,,Yes,,,,,,,,,Yes,Yes,,,,,,Yes,,,,,,,No,,,,,,,,,,,,,,,,No,,,,Yes
2108419.030952721834183,740941.944161057472229,793,Tucker House,,,City of Raleigh,"418 N Person St, Raleigh, NC","418 N Person St, Raleigh, NC",http://www.raleighnc.gov/arts/content/PRecRecreation/Articles/HRMTucker.html,919-831-6009,No,No,No,No,No,No,No,No,No,No,No,No,No,No,No,No,No,No,No,No,No,35.785316,-78.634265,,No,No,No,No,No,No,No,No,No,No,No,No,No,No,No,No,No,,,,Yes
2176780.596985220909119,726727.865633890032768,794,Turnipseed Nature Preserve,Hunt Valley Entrance,,Wake County,7100 Hunt Valley Trail,"Wendell, NC 27591",http://www.wakegov.com/parks/turnipseed/Pages/default.aspx,,No,No,No,No,No,No,No,No,No,No,Yes,No,No,No,No,No,No,No,No,Yes,No,,,,No,No,No,No,No,No,No,No,No,No,No,No,No,No,No,No,No,No,No,No,Yes
2141674.860110223293304,808759.226833313703537,797,Tyler Run Park,,,Town of Wake Forest,"830 Pineview Dr, Wake Forest, NC","830 Pineview Dr, Wake Forest, NC",http://www.wakeforestnc.gov/tyler-run-park.aspx,919-435-9560,No,Yes,No,No,No,No,No,No,Yes,No,No,Yes,Yes,Yes,No,No,No,No,No,No,No,35.971816,-78.522492,,No,No,No,No,Yes,No,No,No,No,No,No,No,No,No,No,No,No,,,,Yes
2067795.664036884903908,741924.190556138753891,798,Urban Park,,,Town of Cary,"414 E Chatham Street, Cary, NC","414 E Chatham Street, Cary, NC",http://www.townofcary.org/recreation-enjoyment/parks-greenways-environment/parks/urban-park,,No,No,No,No,No,No,No,No,No,No,No,Yes,No,Yes,No,No,No,No,No,No,No,35.788604,-78.772030,,No,No,No,No,No,No,No,No,No,No,No,No,No,No,No,No,No,,,,Yes
2031395.880209296941757,746307.069913730025291,802,USA Baseball at Brooks Park,USA Baseball National Training Center,,Town of Cary,"7445 Green Hope School Road, Cary, NC","7445 Green Hope School Road, Cary, NC",http://www.townofcary.org/recreation-enjoyment/facilities/usa-baseball-national-training-complex,919-387-5844,No,Yes,No,No,No,No,No,No,Yes,No,No,No,No,No,No,No,No,No,No,Yes,Yes,35.802200,-78.892300,"Concessions, Gift Shop",No,No,No,No,No,No,No,No,No,No,No,No,No,No,No,No,No,,,,Yes
2109982.903153046965599,740669.276727393269539,805,Vallie Henderson Park,,,City of Raleigh,"314 Linden Ave, Raleigh, NC","314 Linden Ave, Raleigh, NC",http://www.raleighnc.gov/arts_parks/,919-831-6640,No,No,No,No,No,No,No,No,No,No,No,No,No,No,No,No,No,No,No,No,No,35.784470,-78.629083,,No,No,No,No,No,No,No,No,No,No,No,No,No,No,No,No,No,,,,Yes
2098284.570906713604927,694078.653045311570168,806,Vance Elementary School Park,,,Wake County Public School System,"8808 Old Stage Rd, Raleigh, NC","8808 Old Stage Rd, Raleigh, NC",http://www.wcpss.net/vancees,(919) 662-2472,,,,,,,,,,,Yes,,,Yes,,,,,,,,,,,No,,,,,,,,,,,,,,,,No,,,,Yes
2096972.249712467193604,758388.812482476234436,807,Varnell Park,,,City of Raleigh,"2104 Varnell Ave, Raleigh, NC","2104 Varnell Ave, Raleigh, NC",http://www.raleighnc.gov/arts_parks/,919-831-6640,No,No,No,No,No,No,No,No,No,No,No,Yes,No,No,No,No,No,No,No,No,No,35.833474,-78.672768,,No,No,No,No,No,No,No,No,No,No,No,No,No,No,No,No,No,,,,Yes
2067782.528236389160156,753684.992493808269501,808,Veterans Freedom Park,,,Town of Cary,"1517 N Harrison Ave, Cary, NC","1517 N Harrison Ave, Cary, NC",http://www.townofcary.org/recreation-enjoyment/parks-greenways-environment/parks/veterans-freedom-park,,No,No,No,No,No,No,No,No,No,No,No,No,No,No,No,No,No,No,No,No,No,,,,No,No,No,No,No,No,No,No,No,No,No,No,No,No,No,No,No,,,,Yes
2051238.918279051780701,695679.354896396398544,811,Veterans Park,,,Town of Holly Springs,"600 Bikram Dr., Holly Springs, NC","600 Bikram Dr., Holly Springs, NC",http://www.hollyspringsnc.us/index.aspx?NID=336,(919) 557-9600,No,No,No,No,No,No,No,No,Yes,No,No,No,Yes,Yes,No,No,No,No,No,Yes,No,35.662686,-78.827575,,No,No,No,No,No,No,No,No,No,No,No,No,No,No,No,No,No,,,,Yes
2145033.89341838657856,808149.495769307017326,814,Wake Forest Kiwanis Park,,,Town of Wake Forest,"404 E Holding Ave, Wake Forest, NC","404 E Holding Ave, Wake Forest, NC",http://www.wakeforestnc.gov/kiwanis-park.aspx,919-435-9560,No,No,No,No,No,No,No,No,No,No,No,No,Yes,Yes,No,No,No,No,No,No,No,35.970094,-78.509999,,No,No,No,No,No,No,No,No,No,No,No,No,No,No,No,No,No,,,,Yes
2150482.743741139769554,808574.659617140889168,818,Wake Forest Reservoir Soft Trails,,,Town of Wake Forest,,,https://www.wakeforestnc.gov/parks-recreation-cultural-resources/greenways/trails/wake-forest-reservoir-soft-trails,919-435-9512,,,,Yes,,,,Yes,Yes,,,,,,,,,,,Yes,,,,,No,,,,,,,,,,,,,,,,No,,,,Yes
2073074.174149140715599,742679.071592316031456,820,WakeMed Soccer Park,,,Town of Cary,"950 E Chatham Street, Cary, NC","950 E Chatham Street, Cary, NC",http://www.townofcary.org/Departments/Parks__Recreation___Cultural_Resources/Facilities/Sports_Facilities/WakeMed_Soccer_Park.htm,,No,No,No,No,No,No,No,No,No,No,No,No,No,No,No,No,No,No,No,Yes,Yes,35.790248,-78.753053,,No,No,No,No,No,No,No,No,No,No,No,No,No,No,No,No,No,,,,Yes
2123731.001312971115112,732215.954723313450813,824,Walnut Creek Softball Complex,Walnut Creek Softball Complex,,City of Raleigh,"1201 Sunnybrook Rd, Raleigh, NC","1201 Sunnybrook Rd, Raleigh, NC",http://www.raleighnc.gov/arts_parks/,919-250-2725,No,Yes,No,No,No,No,No,No,Yes,No,No,No,No,No,No,No,No,No,No,No,No,35.761005,-78.578907,,No,No,No,No,No,No,No,No,No,No,No,No,No,No,No,No,No,,,,Yes
2111058.605726048350334,732005.349501475691795,830,Walnut Creek Wetland Center,Walnut Creek Park,,City of Raleigh,"950 Peterson St, Raleigh, NC","950 Peterson St, Raleigh, NC",http://www.raleighnc.gov/arts/content/PRecRecreation/Articles/WalnutCreekWetlandCenter.html,919-831-1960,No,No,No,No,No,No,Yes,No,Yes,No,No,No,No,No,No,No,No,No,No,No,Yes,35.760608,-78.625013,,No,No,No,No,No,No,No,No,No,No,No,No,No,No,No,No,No,,,,Yes
2073135.475535720586777,732804.719621896743774,832,Walnut Street Park,,,Town of Cary,"1420 Walnut Street, Cary, NC","1420 Walnut Street, Cary, NC",http://www.townofcary.org/Departments/Parks__Recreation___Cultural_Resources/Parks_and_Greenways/Parks/Walnut_Street_Park.htm,,No,No,No,No,No,No,No,No,No,No,Yes,No,Yes,Yes,No,No,No,No,No,Yes,Yes,35.764216,-78.753836,,No,No,No,No,No,No,No,No,No,No,No,No,No,No,No,No,No,,,,Yes
2106715.523532971739769,734221.175778478384018,835,Walnut Terrace Park,,,City of Raleigh,"1256 McCauley St, Raleigh, NC","1256 McCauley St, Raleigh, NC",https://www.raleighnc.gov/parks/content/ParksRec/Articles/Parks/WalnutTerrace.html,,No,No,No,No,No,No,No,No,No,No,No,No,No,No,No,No,Yes,No,No,No,Yes,,,,No,No,No,No,No,No,No,No,No,No,No,No,No,No,No,No,No,,,,Yes
2184311.834547385573387,740016.695027306675911,838,Wendell Park,,,Town of Wendell,"601 W. Third Street, Wendell, NC","601 W. Third Street, Wendell, NC",http://www.townofwendell.com/departments/parks-and-recreation,(919) 366-2266,No,Yes,No,No,Yes,Yes,No,No,Yes,No,Yes,No,Yes,Yes,No,Yes,No,Yes,No,Yes,Yes,,,,No,No,No,No,No,No,No,No,No,No,No,No,No,No,No,No,No,,,,Yes
2042728.213843807578087,719393.209043398499489,839,West Street Park,,,Town of Apex,"108 West St., Apex, NC","108 West St., Apex, NC",https://www.apexnc.org/796/Neighborhood-Parks,919-249-3402,No,No,No,No,No,No,No,No,No,No,No,Yes,Yes,Yes,No,No,No,No,No,No,No,35.725949,-78.856099,,No,No,No,No,No,No,No,No,No,No,No,No,No,No,No,No,No,,,,Yes
2111320.695424973964691,701545.669935390353203,841,White Deer Park,,,Town of Garner,"2400 Aversboro Road, Garner NC, 27529","2400 Aversboro Road, Garner NC, 27529",http://www.garnernc.gov/Departments/Parks%20and%20Recreation/Parks.aspx?ID=25,919-661-6982,No,No,No,No,No,No,Yes,No,No,No,No,No,Yes,Yes,No,No,Yes,No,No,Yes,Yes,35.680124,-78.622183,,No,No,No,No,No,No,No,No,No,No,No,No,No,No,No,No,No,,,,Yes
2041341.401984885334969,736917.00372014939785,848,White Oak Park,,,Town of Cary,"1216 Jenks Carpenter Road, Cary, NC","1216 Jenks Carpenter Road, Cary, NC",http://www.townofcary.org/Departments/Parks__Recreation___Cultural_Resources/Parks_and_Greenways/Parks/White_Oak_Park.htm,,No,No,No,No,No,No,No,No,Yes,No,Yes,Yes,Yes,Yes,No,No,No,No,No,Yes,Yes,35.775528,-78.859416,,No,No,No,No,No,No,No,No,No,No,No,No,No,No,No,No,No,,,,Yes
2201218.37094421684742,756134.453802227973938,852,Whitley Park,,,Town of Zebulon,"601 N Wakefield St, Zebulon, NC",,https://www.townofzebulon.org/services/parks-and-recreation/parks-facilities,919-823-0432,,,,,,,,,,,,,Yes,Yes,,,,Yes,,,,,,,No,,,,,,,,,,,,,,,,No,,,,Yes
2133027.24682804942131,780983.326676562428474,856,Wildwood Forest Elementary School Park,,,City of Raleigh,"8401 Wild Wood Forest Dr, Raleigh, NC","8401 Wild Wood Forest Dr, Raleigh, NC",http://www.wcpss.net/wildwoodforestes,(919) 713-0600,,Yes,,,,,,,,,Yes,,,Yes,,,,,,,,,,,No,,,,,,,,,,,,,,,,No,,,,Yes
2073966.79375496506691,779118.410130813717842,857,William B. Umstead State Park - Crabtree Creek Entrance,,,State of North Carolina,"8801 Glenwood Avenue, Raleigh, NC 27617","8801 Glenwood Avenue, Raleigh, NC 27617",http://www.ncparks.gov/Visit/parks/wium/main.php,919-571-4170,No,No,Yes,Yes,No,No,Yes,Yes,No,No,No,No,Yes,No,No,No,No,No,No,Yes,No,35.890500,-78.750200,,No,No,No,No,No,No,No,No,No,No,No,No,No,No,No,No,No,,,,Yes
2071002.278030470013618,758292.011494979262352,862,William B. Umstead State Park - Reedy Creek Entrance,,,State of North Carolina,"1800 N. Harrison Ave., Cary, NC  27513","1800 N. Harrison Ave., Cary, NC  27513",http://www.ncparks.gov/Visit/parks/wium/main.php,919-571-4171,No,No,No,No,No,No,No,No,No,No,No,No,Yes,No,No,No,No,No,No,Yes,No,35.834600,-78.760000,,No,No,No,No,No,No,No,No,No,No,No,No,No,No,No,No,No,,,,Yes
2057719.516538307070732,669148.90533272922039,865,William Freeman Park,,,Town of Fuquay-Varina,"210 Lawrence Street, Fuquay-Varina, NC","210 Lawrence Street, Fuquay-Varina, NC",http://www.fuquay-varina.org/departments-and-services/parks-recreation-and-cultural-resources/parks/lawrence-street-park.html,919-552-1430,No,No,No,No,No,No,No,No,No,No,Yes,No,No,No,No,No,No,No,No,No,No,35.587016,-78.805825,,No,No,No,No,No,No,No,No,No,No,No,No,No,No,No,No,No,,,,Yes
2098783.943595632910728,772159.980806231498718,866,Williams Park,,,City of Raleigh,"1525 Lynn Rd, Raleigh, NC","1525 Lynn Rd, Raleigh, NC",http://www.raleighnc.gov/arts/content/PRecRecreation/Articles/WilliamsPark.html,919-420-2329,No,No,No,No,No,No,No,No,No,No,Yes,No,Yes,Yes,No,No,No,Yes,No,Yes,No,35.869589,-78.665655,,No,No,No,No,No,No,No,No,Yes,No,No,No,No,No,No,No,No,,,,Yes
2081198.307507142424583,671032.120398312807083,870,Willow Springs Elementary School Park,,,Wake County Public School System,"6800 Dwight Rowland Rd, Willow Springs, NC","6800 Dwight Rowland Rd, Willow Springs, NC",http://www.wcpss.net/willowspringses,(919) 557-2770,,,,,,,,,,,Yes,,,Yes,,,,,,,,,,,No,,,,,,,,,,,,,,,,No,,,,Yes
2096740.446370303630829,748686.879130482673645,871,Windemere Beaver Dam Park,,,City of Raleigh,"1500 Nottingham Rd, Raleigh, NC","1500 Nottingham Rd, Raleigh, NC",http://www.raleighnc.gov/arts/content/PRecRecreation/Articles/WindemereBeaverDamPark.html,919-831-6640,No,No,No,No,No,No,No,No,Yes,No,No,No,No,Yes,No,No,No,No,No,Yes,No,35.807323,-78.673820,,No,No,No,No,No,No,No,No,No,No,No,No,No,No,No,No,No,,,,Yes
2090321.839456886053085,768810.834289312362671,888,Wooten Meadows Park,,,City of Raleigh,"2801 West Millbrook Rd, Raleigh, NC","2801 West Millbrook Rd, Raleigh, NC",http://www.raleighnc.gov/arts/content/PRecParks/Articles/PlaygroundWootenMeadows.html,919-831-6640,No,No,No,No,No,No,No,No,No,No,Yes,No,No,Yes,No,No,No,No,No,No,No,35.860396,-78.694756,,No,No,No,No,No,No,No,No,No,No,No,No,No,No,No,No,No,,,,Yes
2123898.854979887604713,733343.305158898234367,892,Worthdale Park,,,City of Raleigh,"1001 Cooper Rd, Raleigh, NC","1001 Cooper Rd, Raleigh, NC",http://www.raleighnc.gov/arts/content/PRecRecreation/Articles/WorthdaleMainPage.html,919-250-2730,No,Yes,No,No,No,No,No,No,Yes,Yes,No,Yes,No,Yes,No,Yes,No,Yes,No,Yes,Yes,35.762910,-78.585817,,No,No,No,No,No,No,No,No,No,No,No,No,No,No,No,No,No,,,,Yes
2204540.262922465801239,753197.80317947268486,893,Zebulon Community Park,,,Town of Zebulon,"401 S Arendell Ave, Zebulon, NC",,https://www.townofzebulon.org/services/parks-and-recreation/parks-facilities,,,,,,,,,,,,,,,,,,,,,Yes,Yes,,,,No,,,,,,,,,,,,,,,,No,,,,Yes
